Store_Name,Address,Address Line #2,City,State,Zip,Zip4,County,Location 1
NATURAL PROVISIONS,537 Railroad St,,St Johnsbury,VT,5819,1635,CALEDONIA ,"(44.420277, -72.015343)"
INDO-AMERICAN GROCERY,69 Elliot St,,Brattleboro,VT,5301,,WINDHAM ,"(42.851948, -72.55954)"
RIVER STREET VARIETY STORE,138 River St,,Bennington,VT,5201,1832,BENNINGTON ,"(42.882069, -73.199089)"
Rite Aid 4272,1024 North Ave,,Burlington,VT,5408,2753,CHITTENDEN ,"(44.504543, -73.241615)"
A Taste of Europe LLC,1295 Williston Rd,,South Burlington,VT,5403,5721,CHITTENDEN ,"(44.467072, -73.172241)"
Sunflower Natural Foods,2934 Waterbury-Stowe Rd,,Waterbury Center,VT,5677,7028,WASHINGTON ,"(44.373318, -72.72628)"
CORNER MARKET,150 Benmont Ave,,Bennington,VT,5201,1801,BENNINGTON ,"(42.883545, -73.202042)"
"RAYS MEAT & GROCERY MARKET, INC",100 PARK AVENUE,,IRASBURG,VT,5845,,ORLEANS ,"(44.80238, -72.278603)"
BESSERY'S QUALITY MARKET,1398 North Ave,,Burlington,VT,5408,2495,CHITTENDEN ,"(44.512325, -73.25209)"
THE MORGAN COUNTRY STORE,8411 VT Rte 111,,Morgan,VT,5853,9801,ORLEANS ,"(44.913265, -72.014618)"
Shiva Ram LLC,357 Main St,,Winooski,VT,5404,1335,CHITTENDEN ,"(44.499603, -73.183678)"
Rite Aid 10335,502 Railroad St,,St Johnsbury,VT,5819,1633,CALEDONIA ,"(44.419853, -72.015343)"
Rite Aid 10318,39 Hinesburg Rd,,South Burlington,VT,5403,6526,CHITTENDEN ,"(44.465801, -73.171188)"
Rite Aid 10325,133 N Main St Ste 23,,Saint Albans,VT,5478,1735,FRANKLIN ,"(44.814178, -73.082726)"
Rite Aid 10338,59 Waterfront Plz,Ste 2,Newport,VT,5855,4877,ORLEANS ,"(44.939972, -72.205322)"
CHELSEA COUNRY STORE,289 MAIN STREET,,CHELSEA,VT,5038,,ORANGE ,"(43.992336, -72.460884)"
WESTFIELD GENERAL STORE,17 N Hill Rd,,Westfield,VT,5874,9659,ORLEANS ,"(44.889301, -72.428749)"
Rite Aid 10329,355 N Main St,,Barre,VT,5641,4106,WASHINGTON ,"(44.201992, -72.507141)"
WILLY'S VARIETY,300 Gage St,,Bennington,VT,5201,2512,BENNINGTON ,"(42.881618, -73.193085)"
SHAW'S SUPERMARKET 07649,820 Waterbury Stowe Rd,,Waterbury,VT,5676,9730,WASHINGTON ,"(44.346813, -72.745529)"
GRANITEVILLE GENERAL STORE,652 Graniteville Rd,,Graniteville,VT,5654,,WASHINGTON ,"(44.150646, -72.489021)"
BENSON VILLAGE STORE,774 Lake Rd,,Benson,VT,5731,9701,RUTLAND ,"(43.706696, -73.311859)"
Bellow Falls Farmers Market,17 Depot Sq,,Bellows Falls,VT,5101,1357,WINDHAM ,"(43.13586, -72.444847)"
J & J Corner Store,12 MALLETTS BAY AVENUE,,WINOOSKI,VT,5404,,CHITTENDEN ,"(44.491749, -73.189407)"
PRICE CHOPPER 219,56 COMMONS DRIVE,,DERBY,VT,5829,,ORLEANS ,"(44.954967, -72.083099)"
WINDING BROOK FARM LLC,1224 Laporte Rd,,Morrisville,VT,5661,8319,LAMOILLE ,"(44.551441, -72.615288)"
MOUNTAIN PAULS GENERAL STORE,5 Bellows Falls Rd,,Putney,VT,5346,,WINDHAM ,"(42.975498, -72.52166)"
BUXTONS STORE,499 Main St,,Orwell,VT,5760,,ADDISON ,"(43.803665, -73.298424)"
FLANDERS MARKET LTD,359 VT Rte 110,,Chelsea,VT,5038,8994,ORANGE ,"(43.997379, -72.448921)"
CABOT VILLAGE STORE,3109 MAIN ST,,CABOT,VT,5647,,WASHINGTON ,"(44.403011, -72.310654)"
SWEET CLOVER MARKET,21 Essex Way,Ste 418,Essex Junction,VT,5452,3300,CHITTENDEN ,"(44.50766, -73.079086)"
DOLLAR GENERAL 10721,63 Creek Farm Plz,,Colchester,VT,5446,7892,CHITTENDEN ,"(44.551105, -73.165237)"
KINNEY DRUGS 21,82 Pearl St,,Essex Junction,VT,5452,3642,CHITTENDEN ,"(44.494274, -73.119797)"
MARTINS MINI MART,301 Main St,,Bennington,VT,5201,2112,BENNINGTON ,"(42.879288, -73.199066)"
HARBORSIDE HARVEST MARKET,8986 US Route 2,,North Hero,VT,5474,9746,GRAND ISLE ,"(44.882961, -73.271866)"
BRIXTON HALAAL LLC,184 North St,,Burlington,VT,5401,4218,CHITTENDEN ,"(44.484726, -73.214691)"
Richmond Market & Beverage,56 Railroad St,,Richmond,VT,5477,7740,CHITTENDEN ,"(44.404922, -72.995369)"
KINNEY DRUG 56,901 Lower Pln,,Bradford,VT,5033,8924,ORANGE ,"(43.980675, -72.120186)"
KINNEY DRUGS 23,97 Morrisville Plz,,Morrisville,VT,5661,4473,LAMOILLE ,"(44.574211, -72.591934)"
KINNEY DRUGS 86,155 S Main St,,Cambridge,VT,5444,9665,CHITTENDEN ,"(44.644722, -72.87764)"
KINNEY DRUGS 58,55 Shattuck Hill Rd,,Newport,VT,5855,9831,ORLEANS ,"(44.951382, -72.164345)"
Radio Deli,77 Pearl St,,Burlington,VT,5401,4333,CHITTENDEN ,"(44.48032, -73.215508)"
Brattleboro Area Farmers Mkt,570 Western Ave,,Brattleboro,VT,5301,6286,WINDHAM ,"(42.850082, -72.587349)"
Winooski Farmers Mkt,1 Abenaki Way,,Winooski,VT,5404,2245,CHITTENDEN ,"(44.4916, -73.181816)"
Cumberland Farms 8030,317 Marlboro Rd,,W Brattleboro,VT,5301,9725,WINDHAM ,"(42.865929, -72.615326)"
Macs Market,101 Pearl St,,Essex Junction,VT,5452,3625,CHITTENDEN ,"(44.494724, -73.120651)"
Cheese Trader and Wine Sellers,1186 Williston Rd,,S Burlington,VT,5403,5723,CHITTENDEN ,"(44.468006, -73.176598)"
KINNEY DRUGS 93,957 Memorial Dr,,St Johnsbury,VT,5819,9238,CALEDONIA ,"(44.445942, -72.015648)"
KINNEY DRUGS 94,407 Broad St,,Lyndonville,VT,5851,,CALEDONIA ,"(44.52544, -72.000931)"
DOLLAR GENERAL 11091,29 Middle Rd,,Milton,VT,5468,3730,CHITTENDEN ,"(44.621593, -73.119095)"
Lisai Market,128 Atkinson St,,Bellows Falls,VT,5101,1326,WINDHAM ,"(43.138134, -72.452621)"
Troy Country Store,6561 VT Route 100,,Troy,VT,5868,,ORLEANS ,"(44.904591, -72.401657)"
Mawuhi African Market,160 N Winooski Ave,,Burlington,VT,5401,3618,CHITTENDEN ,"(44.48513, -73.211098)"
Georgia Market,962 Ethan Allen Hwy,,Georgia,VT,5454,,CHITTENDEN ,"(44.693203, -73.108192)"
Uncommon Market,1 School St,,Montpelier,VT,5602,2912,WASHINGTON ,"(44.261513, -72.575279)"
DOLLAR GENERAL 11046,74 S Main St,,Barre,VT,5641,4826,WASHINGTON ,"(44.192806, -72.500587)"
Scampys Country Store & Deli,1155 VT Route 105,,W Charleston,VT,5872,,ORLEANS ,"(44.897934, -72.058105)"
Thai Phat Market,100 North St,,Burlington,VT,5401,5153,CHITTENDEN ,"(44.484596, -73.21804)"
Natural Provisions,329 Harvest Ln,,Williston,VT,5495,7895,CHITTENDEN ,"(44.448746, -73.115402)"
C Village Store,25 S Craftsbury Rd,,Craftsbury,VT,5826,9739,ORLEANS ,"(44.635632, -72.372841)"
Sheldon Creek Market,94 Bridge St,,Sheldon,VT,5483,9655,FRANKLIN ,"(44.88129, -72.944496)"
East Calais General Store,4520 VT Route 14,,East Calais,VT,5650,8022,WASHINGTON ,"(44.365524, -72.430565)"
D & L Beverage,VT Route 16,,E Hardwick,VT,5836,,CALEDONIA ,"(44.49947, -72.323868)"
Corner Stop Mini Mart,2336 VT Route 14,,S Royalton,VT,5068,9329,WINDSOR ,"(43.823605, -72.518532)"
LVYR Farmers Artisan Market,74 Pleasant St,,Morrisville,VT,5661,,LAMOILLE ,"(44.562824, -72.597176)"
Wheelock Village Store,1311 Route 122,,Lyndonville,VT,5851,9664,CALEDONIA ,"(44.588181, -72.085915)"
Bellomos Market,31 Forest St,,Rutland,VT,5701,3963,RUTLAND ,"(43.605347, -72.984261)"
Capitol City Farmers Market,60 State St,,Montpelier,VT,5602,2933,WASHINGTON ,"(44.260483, -72.577194)"
Middlebury Farmers Market,Marbleworks Complex,,Middlebury,VT,5753,,ADDISON ,"(43.996964, -73.174408)"
Rutland County Farmers Market,Depot Park,near Walmart,Rutland,VT,5701,,RUTLAND ,"(43.633873, -72.927414)"
Walloomsac Farmers Market,Bennington Station Depot St (summer),Holden Leonare Mill (Winter),Bennington,VT,5201,,BENNINGTON ,"(42.8894, -73.128029)"
Community Halal Store,128 North St,,Burlington,VT,5401,5179,CHITTENDEN ,"(44.484646, -73.216812)"
Woodbury Village Store,21 Valley Lake Rd,,Woodbury,VT,5681,,WASHINGTON ,"(44.440983, -72.415489)"
Newport Natural LLC,194 Main St,Ste B,Newport,VT,5855,6101,ORLEANS ,"(44.935646, -72.209808)"
DOLLAR TREE 2872,121 Bennington Plz,N Bennington Rd Ste 2,Bennington,VT,5201,,BENNINGTON ,"(42.907749, -73.218666)"
Champlain Discount Foods,2 Depot St,,Vergennes,VT,5491,,ADDISON ,"(44.177956, -73.247131)"
Troy General Store,6740 VT Route 100,,Troy,VT,5868,,ORLEANS ,"(44.904037, -72.405113)"
KINNEY DRUGS 29,308 Shelburne Rd,,Burlington,VT,5401,4919,CHITTENDEN ,"(44.456608, -73.208405)"
Vista,21 Waterfront Plz,,Newport,VT,5855,5150,ORLEANS ,"(44.939342, -72.205421)"
Thibaults Market,52 Main St,,Orleans,VT,5860,1135,ORLEANS ,"(44.810478, -72.203461)"
Discount Foods of Rutland,88 Cleveland Ave,,Rutland,VT,5701,2747,RUTLAND ,"(43.612698, -72.988708)"
Dollar Tree 2176,168 Ames Plaza Drive,,Barre,VT,5641,,WASHINGTON ,"(44.222965, -72.54734)"
Dollar Tree 2916,3799 US Route 5,,Derby,VT,5829,9468,ORLEANS ,"(44.952755, -72.143967)"
Champlain Farms 10,328 North Ave,,Burlington,VT,5401,2918,CHITTENDEN ,"(44.48999, -73.226707)"
Champlain Farms 50,1118 Williston Rd,,South Burlington,VT,5403,5718,CHITTENDEN ,"(44.468685, -73.179352)"
Champlain Farms 60,315 Shelburne Rd,,Burlington,VT,5401,4917,CHITTENDEN ,"(44.456276, -73.208549)"
Champlain Farms 80,1800 Williston Rd,,South Burlington,VT,5403,6471,CHITTENDEN ,"(44.462917, -73.153954)"
Champlain Farms 81,801 Williston Rd,,South Burlington,VT,5403,5716,CHITTENDEN ,"(44.472042, -73.189255)"
Champlain Farms 100,169 Washington St,,Barre,VT,5641,4332,WASHINGTON ,"(44.191975, -72.492378)"
Champlain Farms 130,1 Grove St,,Brandon,VT,5733,1001,RUTLAND ,"(43.800694, -73.094162)"
Champlain Farms 140,3 West St,,Bristol,VT,5443,1227,ADDISON ,"(44.13327, -73.079193)"
Champlain Farms 150,156 Roosevelt Hwy,,Colchester,VT,5446,5866,CHITTENDEN ,"(44.504253, -73.181633)"
Champlain Farms 160,3570 Roosevelt Hwy,,Colchester,VT,5446,7166,CHITTENDEN ,"(44.551247, -73.163696)"
Champlain Farms 170,3923 US Route 5,,Newport,VT,5855,9489,ORLEANS ,"(44.941429, -72.185181)"
Champlain Farms 180,127 Main St,,Enosburg Falls,VT,5450,5000,FRANKLIN ,"(44.904575, -72.806503)"
Champlain Farms 192,25 Jericho Rd,,Essex Junction,VT,5452,2707,CHITTENDEN ,"(44.508652, -73.054054)"
Champlain Farms 200,51 Lake Morey Rd,,Fairlee,VT,5045,9595,ORANGE ,"(43.904625, -72.150475)"
Champlain Farms 230,25 Court St,,Middlebury,VT,5753,1454,ADDISON ,"(44.012089, -73.164398)"
Champlain Farms 240,5 Memorial Dr,,Montpelier,VT,5602,3405,WASHINGTON ,"(44.25774, -72.577866)"
Fastop 260,108 State St,,Montpelier,VT,5602,2838,WASHINGTON ,"(44.260914, -72.579155)"
Champlain Farms 330,188 1st St,,Swanton,VT,5488,8008,FRANKLIN ,"(44.922501, -73.106133)"
Champlain Farms 332,2 Canada St,,Swanton,VT,5488,1336,FRANKLIN ,"(44.919521, -73.124832)"
Champlain Farms 350,5119 Main St,,Waitsfield,VT,5673,7110,WASHINGTON ,"(44.184425, -72.836212)"
Champlain Farms 360,1 N Main St,,Waterbury,VT,5676,1804,WASHINGTON ,"(44.337803, -72.756332)"
Fastop 370,713 Waterbury Stowe Rd,,Waterbury,VT,5676,9728,WASHINGTON ,"(44.34547, -72.746468)"
Champlain Farms 400,280 E Allen St,,Winooski,VT,5404,1564,CHITTENDEN ,"(44.493092, -73.17585)"
Dollar General 11221,236 River St,,Springfield,VT,5156,2306,WINDSOR ,"(43.307182, -72.49514)"
Chef's Market Produce & Provisions,839 VT Route 12 S,,Randolph,VT,5060,9617,ORANGE ,"(43.902954, -72.657433)"
Winter Farmers Mkt/Townshend Farmers Mkt,153 Main St,,Brattleboro,VT,5301,3061,WINDHAM ,"(42.853115, -72.558441)"
Price Chopper 228,41 Hinesburg Rd,,South Burlington,VT,5403,6526,CHITTENDEN ,"(44.465748, -73.171181)"
Kingdom Market,12 Railroad St,,Island Pond,VT,5846,,ESSEX ,"(44.815159, -71.881264)"
Norwich Farmers Market,Rt 5 South,"1 mile south of I-91 Exit 13, school lot",Norwich,VT,5055,,WINDSOR ,"(43.696163, -72.318954)"
Gagan Asian Grocery,1293 Williston Rd,,South Burlington,VT,5403,5721,CHITTENDEN ,"(44.466969, -73.171867)"
Sweet Pea Natural Food,5031 Main St,,Waitsfield,VT,5673,7111,WASHINGTON ,"(44.185284, -72.835007)"
CIrcle K 7409,564 Canal St,,Brattleboro,VT,5301,6625,WINDHAM ,"(42.837265, -72.565773)"
Circle K 7400,109 Main St,,Derby Line,VT,5830,8754,ORLEANS ,"(45.004379, -72.100311)"
Circle K 7401,450 Main St,,Lyndonville,VT,5851,,CALEDONIA ,"(44.539932, -72.002014)"
Circle K 7402,452 Main St,,Barton,VT,5822,,ORLEANS ,"(44.750832, -72.179756)"
CIrcle k 7403,86 Woodstock Ave,Ste 2,Rutland,VT,5701,9993,RUTLAND ,"(43.613304, -72.965279)"
Circle K 7407,5190 US Route 176,,Westminster Station,VT,5159,9672,WINDHAM ,"(43.09454, -72.443954)"
CIrcle K 7408,301 Rt 131,,Ascutney,VT,5030,,WINDSOR ,"(43.406918, -72.407227)"
D&K's Jamaica Grocery Store,3816 Main Street,VT Route 30,Jamaica,VT,5343,,WINDHAM ,"(43.101227, -72.798958)"
Williston Farmers' Market FM,195 Central School Dr,,Williston,VT,5495,9411,CHITTENDEN ,"(44.43919, -73.075958)"
Enosburg Meat Market Inc.,27 Bismark St,,Enosburg Falls,VT,5450,,FRANKLIN ,"(44.907791, -72.805389)"
Beverage King,334 Route 4A West,,Bomoseen,VT,5732,,RUTLAND ,"(43.608471, -73.208435)"
Kampus Kitchen,273 Colchester Ave,,Burlington,VT,5401,1408,CHITTENDEN ,"(44.483223, -73.190231)"
"Williston Liquidation Center, LLC",53 Munson Way,,Williston,VT,5495,8943,CHITTENDEN ,"(44.457561, -73.127563)"
Manchester Farmers' Market,340 Recreation Park RD,,Manchester Center,VT,5255,,BENNINGTON ,"(43.184433, -73.053001)"
Crossroad Farm DF,811 W Fairlee Rd,,Fairlee,VT,5045,9677,ORANGE ,"(43.894463, -72.251686)"
Bristol Farmers' Market,Main Street,Bristol Town Green,Bristol,VT,5443,,ADDISON ,"(44.132614, -73.075584)"
Granite Center Farmers Market,6 N Main St,,Barre,VT,5641,,WASHINGTON ,"(44.196819, -72.501495)"
River Valley Store,4495 VT Route 100c,,Johnson,VT,5656,9333,LAMOILLE ,"(44.665985, -72.607323)"
Stewarts Shop 197,4455 Main St,,Manchester Center,VT,5255,4489,BENNINGTON ,"(43.172497, -73.062843)"
new leaf organics,4819 Bristol Rd,,Bristol,VT,5443,9337,ADDISON ,"(44.184784, -73.106239)"
Price Chopper 230,1184 Prim Rd,,Colchester,VT,5446,4449,CHITTENDEN ,"(44.53783, -73.246849)"
Winooski Community Partnership Farmers Market,Winooski Falls Way,,Winooski,VT,5404,,CHITTENDEN ,"(44.49025, -73.184189)"
Old North End Variety LLC,142 N Winooski Ave,,Burlington,VT,5401,3785,CHITTENDEN ,"(44.484829, -73.211411)"
Ted's Market,126 Cross Street,,Island Pond,VT,5846,,ESSEX ,"(44.813435, -71.881203)"
Newport Car Wash and Mini Mart,398 Western Ave,,Newport,VT,5855,9404,ORLEANS ,"(44.938766, -72.198296)"
Waterbury Farmers Market Inc,South Main St,Rusty Parker Memorial Park,Waterbury,VT,5676,,WASHINGTON ,"(44.328373, -72.746078)"
Ascutney Market,6014 Route 5,,Ascutney,VT,5030,,WINDSOR ,"(43.406761, -72.407532)"
Bennington II Short Stop 117,300 Main St,,Bennington,VT,5201,2107,BENNINGTON ,"(42.879375, -73.198982)"
Grove Street Short Stop 138,129 Grove St,,Rutland,VT,5701,3104,RUTLAND ,"(43.614391, -72.982773)"
JR's Corner Store LLC,144 North St,,Burlington,VT,5401,4215,CHITTENDEN ,"(44.48468, -73.216599)"
Snow Mountain Market,323 Route 100,,West Dover,VT,5356,9740,WINDHAM ,"(42.955837, -72.881424)"
Old North End Farmers Market FM,6 Archibald St,,Burlington,VT,5401,4279,CHITTENDEN ,"(44.487759, -73.213562)"
Main Street Grocery,67 Main St,,North Troy,VT,5859,9563,ORLEANS ,"(44.995743, -72.403564)"
Circle K 7406,2557 W River Rd,,Dummerston,VT,5301,9664,WINDHAM ,"(42.928406, -72.611153)"
Himalayan Food Market,97 North St,,Burlington,VT,5401,5130,CHITTENDEN ,"(44.484543, -73.21833)"
Dollar General 11660,111 N Main St,,Fair Haven,VT,5743,1132,RUTLAND ,"(43.594822, -73.265396)"
Dollar General 11771,164 Broad St,,Lyndonville,VT,5851,8606,CALEDONIA ,"(44.521671, -72.000847)"
CVS Pharmacy 337,8 Kocher Dr,,Bennington,VT,5201,1923,BENNINGTON ,"(42.89415, -73.199844)"
New Farm New American,32 Mallets Bay Ave,,Winooski,VT,5404,,CHITTENDEN ,"(44.492355, -73.189972)"
Alpine Valley General Store,1111 Main St,,Concord,VT,5824,9771,ESSEX ,"(44.435272, -71.879265)"
West St Corner,377 West St,,Rutland,VT,5701,2626,RUTLAND ,"(43.605434, -72.99646)"
Walker Farm DF,1190 US Route 5,,E Dummerston,VT,5346,9766,WINDHAM ,"(42.927116, -72.537636)"
Elmore Store,1208 Route 12,,Elmore,VT,5661,2008,LAMOILLE ,"(44.540424, -72.52317)"
Gregs Meat Market,3 Elm St,,Middlebury,VT,5753,1127,ADDISON ,"(44.018131, -73.166679)"
Northwest Farmers Market,Main St,Taylor Park,St Albans,VT,5478,,FRANKLIN ,"(44.760506, -73.072815)"
Dollar General 11877,1032 Prim Rd,,Colchester,VT,5446,6355,CHITTENDEN ,"(44.539433, -73.245186)"
Steeple Market,1098 Main St,,Fairfax,VT,5454,9529,CHITTENDEN ,"(44.663582, -73.008553)"
Dollar General 11654,260 N Main St,,Rutland,VT,5701,2413,RUTLAND ,"(43.627655, -72.975685)"
Kmart 7039,947 Shelburne Rd,,South Burlington,VT,5403,6998,CHITTENDEN ,"(44.443516, -73.209801)"
Kmart 9536,19 Kocher Dr,,Bennington,VT,5201,1924,BENNINGTON ,"(42.894138, -73.199638)"
Whites Fuel Stop,1003 US Route 7,,Danby,VT,5739,9618,RUTLAND ,"(43.349133, -72.992607)"
5 Corners Variety,39 Park St,,Essex Junction,VT,5452,3589,CHITTENDEN ,"(44.48774, -73.112892)"
Lunenburg Farmers Market,Lunenburg Town Common,,Lunenburg,VT,5906,,ESSEX ,"(44.482613, -71.715714)"
Costco Wholesale 0314,218 Lower Mountain View Dr,,Colchester,VT,5446,5830,CHITTENDEN ,"(44.505672, -73.176903)"
Downhome Deli/Market,51 Ossie Rd,,Middlebury,VT,5753,8670,ADDISON ,"(43.972157, -73.108353)"
Putney Road Market,3 1/2 Putney Rd,,Brattleboro,VT,5301,6206,WINDHAM ,"(42.856026, -72.559837)"
Hometown Beverage & Redemption Inc,70 S Main St,,Saint Albans,VT,5478,2230,FRANKLIN ,"(44.808598, -73.083946)"
North Bennington Variety,49 Route 67 W,,North Bennington,VT,5257,9100,BENNINGTON ,"(42.934486, -73.25032)"
Enosburg Short Stop 127,182 Main St,,Enosburg Falls,VT,5450,5949,FRANKLIN ,"(44.905003, -72.806145)"
Swanton Short Stop 111,97 1st St,,Swanton,VT,5488,1118,FRANKLIN ,"(44.920788, -73.115059)"
Jolley Saints 112,2861 VT Route 105,,East Berkshire,VT,5447,9701,FRANKLIN ,"(44.934315, -72.710403)"
Derby Short Stop 113,4486 US Rt. 5,,Derby,VT,5829,,ORLEANS ,"(44.951668, -72.159531)"
Milton Short Stop 122,"250 Route 7, Redwood Plaza",,Milton,VT,5468,,CHITTENDEN ,"(44.622623, -73.12133)"
Alburg Village Mobil 135,36 N Main St,,Alburgh,VT,5440,9725,GRAND ISLE ,"(44.980644, -73.298088)"
Barre-Berlin Mobil 137,1097 US Route 302,,Barre,VT,5641,2355,WASHINGTON ,"(44.224335, -72.551033)"
Bakersfield Short Stop 141,446 Main Street,,Bakersfield,VT,5441,,FRANKLIN ,"(44.788422, -72.79969)"
Bennington Shell 145,110 Northside Dr,,Bennington,VT,5201,1860,BENNINGTON ,"(42.89542, -73.203743)"
St. Albans Go Go Mart 157,277 N Main St,,Saint Albans,VT,5478,2501,FRANKLIN ,"(44.823544, -73.080963)"
Alburg Go Go Mart 158,316 US Route 2 N,,Alburgh,VT,5440,9730,GRAND ISLE ,"(44.999172, -73.329201)"
Johnson Jolley 305,25 VT Route 15 W,,Johnson,VT,5656,8913,LAMOILLE ,"(44.635811, -72.692322)"
Moretown General 321,Route 100 B,,Moretown,VT,5660,667,WASHINGTON ,"(44.240273, -72.775368)"
Walgreens 01756,10 Woodstock Ave,,Rutland,VT,5701,3514,RUTLAND ,"(43.610813, -72.971634)"
Kinney Drugs 101,80 S Main St,Ste 2,Waterbury,VT,5676,1540,WASHINGTON ,"(44.334862, -72.753387)"
Mountain Greens Market,25 Mountain View St,,Bristol,VT,5443,1312,ADDISON ,"(44.134537, -73.076019)"
Rite Aid 10314,194 North St,,Bennington,VT,5201,1874,BENNINGTON ,"(42.881031, -73.197037)"
Rite Aid 10319,321 Main St,,Winooski,VT,5404,1380,CHITTENDEN ,"(44.498001, -73.184479)"
Rite Aid 10320,1 Prince Ln,,Bristol,VT,5443,1224,ADDISON ,"(44.133526, -73.078049)"
Rite Aid 10321,1184 Prim Rd Ste 2,,Colchester,VT,5446,4449,CHITTENDEN ,"(44.53783, -73.246849)"
Rite Aid 10322,221 Main St,,Enosburg Falls,VT,5450,6109,FRANKLIN ,"(44.905556, -72.805992)"
Rite Aid 10323,75 Pearl St,,Essex Junction,VT,5452,3625,CHITTENDEN ,"(44.493996, -73.119041)"
Rite Aid 10324,201 US Route 7,,Milton,VT,5468,31,CHITTENDEN ,"(44.625332, -73.117836)"
Rite Aid 10327,108 Cornerstone Dr,,Williston,VT,5495,4034,CHITTENDEN ,"(44.44762, -73.103767)"
Rite Aid 10330,48 Congress St,,Morrisville,VT,5661,6032,LAMOILLE ,"(44.561043, -72.598137)"
Rite Aid 10332,7 West St,,Rutland,VT,5701,3258,RUTLAND ,"(43.608627, -72.973244)"
Rite Aid 10333,1 Union St,,Brandon,VT,5733,1127,RUTLAND ,"(43.797401, -73.087753)"
Rite Aid 10334,263 Court St,,Middlebury,VT,5753,8986,ADDISON ,"(44.002907, -73.154274)"
Rite Aid 10336,82 VT Route 15 W,,Hardwick,VT,5843,9454,CALEDONIA ,"(44.507896, -72.360809)"
Rite Aid 10337,412 Broad St,,Lyndonville,VT,5851,8623,CALEDONIA ,"(44.525841, -72.000717)"
Rite Aid 01174,294 MAIN STREET,,WEST RUTLAND,VT,5777,,RUTLAND ,"(43.593456, -73.043709)"
Rite Aid 01363,4993 Main St Ste A,,Manchester Center,VT,5255,9768,BENNINGTON ,"(43.177505, -73.054832)"
Rite Aid 03201,62 Washington Street Ext,,Fair Haven,VT,5743,4402,RUTLAND ,"(43.600822, -73.273338)"
Rite Aid 04581,29 Main St,,Montpelier,VT,5602,3174,WASHINGTON ,"(44.258995, -72.576218)"
Rite Aid 04827,9 Susie Wilson Rd,,Essex Junction,VT,5452,2814,CHITTENDEN ,"(44.504547, -73.137573)"
"Champlain Islands Farmers Market, Inc.",Route 2,Multiple locations for outdoor market,Grand Isle,VT,5458,,GRAND ISLE ,"(44.680084, -73.31591)"
Hannaford 8408,139 1st St,,Swanton,VT,5488,8963,FRANKLIN ,"(44.921474, -73.11174)"
Hannaford 8409,71 Supermarket Dr,,Brandon,VT,5733,1180,RUTLAND ,"(43.797222, -73.090286)"
Cedar Circle Farm DF,225 Pavillion Rd,,East Thetford,VT,5043,9604,ORANGE ,"(43.806419, -72.189262)"
"The Vermont Farmers Market, Inc. FM",Depot Park,,Rutland,VT,5701,,RUTLAND ,"(43.633873, -72.927414)"
Alburgh Beverage Mart LLC,2 N Main St,,Alburgh,VT,5440,9725,GRAND ISLE ,"(44.976967, -73.299789)"
"Burlington New North End Farmers Market, Inc.",North Avenue,,Burlington,VT,5408,,CHITTENDEN ,"(44.494953, -73.230614)"
Windsor Farmers' Market FM,40 State Street,,Windsor,VT,5089,,WINDSOR ,"(43.480419, -72.387451)"
Market on the Green,Village Green,,Woodstock,VT,5091,486,WINDSOR ,"(43.637905, -72.562225)"
Richmond Farmers' Market,Volunteers Green,,Richmond,VT,5477,,CHITTENDEN ,"(44.391376, -72.988983)"
Orleans One Stop Mini Mart,115 Main St,,Orleans,VT,5860,1111,ORLEANS ,"(44.809372, -72.204643)"
Family Dollar 1613,2 Chester Rd,Ste 17,Springfield,VT,5156,2953,WINDSOR ,"(43.303715, -72.492638)"
Family Dollar 2621,120 Depot St,,Bennington,VT,5201,1883,BENNINGTON ,"(42.880108, -73.198837)"
Family Dollar 2964,65 Northgate Plz,Ste 13,Morrisville,VT,5661,5900,LAMOILLE ,"(44.57169, -72.594238)"
Family Dollar 3204,Old Route 4A - Westway Mall,,West Rutland,VT,5777,,RUTLAND ,"(43.593376, -73.04351)"
Family Dollar 5879,105 Lake St,,Saint Albans,VT,5478,2218,FRANKLIN ,"(44.810989, -73.086731)"
Family Dollar 6008,69 Jayview Dr,,Enosburg Falls,VT,5450,5164,FRANKLIN ,"(44.912487, -72.79689)"
Family Dollar 6907,406 VT Route 12 N,,Randolph,VT,5060,9310,ORANGE ,"(43.938087, -72.654312)"
Family Dollar 7483,266 Main St,,Newport,VT,5855,5039,ORLEANS ,"(44.935078, -72.211533)"
Family Dollar 7832,76 Main St,,Orleans,VT,5860,1128,ORLEANS ,"(44.80962, -72.204224)"
Thetford Center Village Store,3956 Route 113,,Thetford Center,VT,5075,9801,ORANGE ,"(43.832802, -72.247795)"
Circle K 7404,14 Missing Link Rd,,Springfield,VT,5156,9224,WINDSOR ,"(43.264217, -72.43737)"
Rite Aid 00297,896 Putney Rd,Unit 6,Brattleboro,VT,5301,8844,WINDHAM ,"(42.878963, -72.559647)"
Rite Aid 10315,499 Canal St,Ste 3,Brattleboro,VT,5301,3421,WINDHAM ,"(42.838814, -72.565277)"
SHREWSBURY COOPERATVE AT PIERCE'S STORE2658 NORTHU,2658 Northam Rd,,Cuttingsville,VT,5738,9674,RUTLAND ,"(43.528759, -72.827362)"
Hannaford Supermarket & Pharmacy 8426,586 Lower Plain,,Bradford,VT,5033,,ORANGE ,"(43.984421, -72.122025)"
West Street Market,36 West St,,Proctor,VT,5765,1042,RUTLAND ,"(43.658909, -73.043564)"
Kingsbury Market Garden,284 Route 100,,Warren,VT,5674,,WASHINGTON ,"(44.142723, -72.84259)"
C & C Supermarket,71 Church St,,Barton,VT,5822,,ORLEANS ,"(44.750023, -72.180275)"
Champlain Farms 340,65 Main St,,Vergennes,VT,5491,1113,ADDISON ,"(44.16906, -73.250008)"
Gracey's Store & Deli,1333 Williston Rd,,South Burlington,VT,5403,6461,CHITTENDEN ,"(44.466675, -73.17038)"
Simon's St. George Store,10 Barber Rd,,St George,VT,5495,8063,CHITTENDEN ,"(44.379028, -73.12645)"
Westgate Market Basket,50 Westgate Dr,,Brattleboro,VT,5301,6678,WINDHAM ,"(42.865463, -72.619843)"
River Valley Market,661 VT Route 100 N,,Wilmington,VT,5363,7917,WINDHAM ,"(42.910133, -72.843231)"
Takoda's Discount Variety,2848 Route 7,,Pownal,VT,5261,4415,BENNINGTON ,"(42.800163, -73.220078)"
White River Junction Coop Food Store,209 Maple St,,White River Junction,VT,5001,7028,WINDSOR ,"(43.651855, -72.318665)"
Kinney Drugs 102,151 VT Route 12 S,,Randolph,VT,5060,9237,ORANGE ,"(43.91264, -72.664421)"
Five Corners Farmers Market,Lincoln Place,,Essex Junction,VT,5452,,CHITTENDEN ,"(44.491795, -73.111122)"
Ingalls Market & Deli LLC,4121 VT Rte 100,,Eden Mills,VT,5653,9719,LAMOILLE ,"(44.713425, -72.523491)"
West Hartford Village Store,5187 Vt Rt 14 N,,West Hartford,VT,5084,,WINDSOR ,"(43.7131, -72.417641)"
Robert's Country Store,2980 VT Route 110,,Washington,VT,5675,7182,ORANGE ,"(44.107468, -72.433289)"
Clarks Williston Exit Sunoco,2939 St George Rd,,Williston,VT,5495,7428,CHITTENDEN ,"(44.440933, -73.114159)"
Dollar General 12210,23 Marlboro Rd,,Brattleboro,VT,5301,9706,WINDHAM ,"(42.861012, -72.606155)"
Dollar General 12464,105 VT Route 12 S,,Randolph,VT,5060,9237,ORANGE ,"(43.912266, -72.664398)"
Simon's Chimney Corners Store,6387 Roosevelt Hwy,,Colchester,VT,5446,7537,CHITTENDEN ,"(44.58733, -73.166451)"
Simon's Five Corner Store,2 Park St,,Essex Junction,VT,5452,3628,CHITTENDEN ,"(44.490486, -73.11113)"
Simon's Montpelier Store & Deli,377 River St,,Montpelier,VT,5602,8300,WASHINGTON ,"(44.236141, -72.553993)"
Jericho Center Country Store,25 Jericho Center Cir,,Jericho,VT,5465,2602,CHITTENDEN ,"(44.469784, -72.97319)"
Dutton Farm Stand DF,308 Marlboro Rd,,Brattleboro,VT,5301,9725,WINDHAM ,"(42.865734, -72.614899)"
Simon's MIlton Store,6 River St,,Milton,VT,5468,3641,CHITTENDEN ,"(44.639439, -73.113396)"
Simon's Route 2A Store,221 Colchester Rd,,Essex Junction,VT,5452,2401,CHITTENDEN ,"(44.518982, -73.123116)"
The Dam Store,89 Route 7 N,,Milton,VT,5468,3970,CHITTENDEN ,"(44.651688, -73.114914)"
"Cumberland Farms, Inc 8015",143 Main St,,Ludlow,VT,5149,1025,WINDSOR ,"(43.396118, -72.699768)"
"Cumberland Farms, Inc 8008",433 Woodstock Rd,,Woodstock,VT,5091,1159,WINDSOR ,"(43.627441, -72.506699)"
CVS Pharmacy 673,31 S Main St,,Rutland,VT,5701,5041,RUTLAND ,"(43.605999, -72.972328)"
Green Top Market,639 Morristown Corners Rd,,Morrisville,VT,5661,8673,LAMOILLE ,"(44.557373, -72.624153)"
Maple Corner Store,31 W County Rd,Unit 2,Calais,VT,5648,9998,WASHINGTON ,"(44.375149, -72.495079)"
Simon's Taft Plaza Store & Deli,10 Simons Plz,,Williston,VT,5495,5250,CHITTENDEN ,"(44.447899, -73.105827)"
Dollar General 12112,1 Noyes St,,Richford,VT,5476,1015,FRANKLIN ,"(44.990284, -72.675209)"
CVS Pharmacy 1052,7 Essex Way,,Essex Junction,VT,5452,3384,CHITTENDEN ,"(44.509377, -73.078506)"
North End Deli Mart 114,475 N Main St,,Barre,VT,5641,4039,WASHINGTON ,"(44.206093, -72.511765)"
Eastern & Main Market - Deli,1194 Main St,ste 101,St Johnsbury,VT,5819,,CALEDONIA ,"(44.418736, -72.020912)"
Intervale Center CSA,180 Intervale Rd,,Burlington,VT,5401,2804,CHITTENDEN ,"(44.495556, -73.206467)"
Marshfield Village Store,1425 US Route 2,,Marshfield,VT,5658,253,WASHINGTON ,"(44.351727, -72.348083)"
Wooden Barrel Country Store,231 Chittenden Rd,,Chittenden,VT,5737,9806,RUTLAND ,"(43.701935, -72.950874)"
Tunbridge Store,304 VT Route 110,,Tunbridge,VT,5077,9586,ORANGE ,"(43.890999, -72.490921)"
Aldrichs General Store,196 VT Route 5A,,West Burke,VT,5871,8901,CALEDONIA ,"(44.644024, -71.980827)"
Open Heart Farm DF,78 Rose St,Unit 4,Burlington,VT,5401,4212,CHITTENDEN ,"(44.486935, -73.21656)"
Olivia's Market,199 Stratton Rd,,Rutland,VT,5701,4621,RUTLAND ,"(43.603184, -72.955986)"
Lester Farm DF,2297 Ethan Allen Highway,,New Haven,VT,5472,,ADDISON ,"(44.079372, -73.175827)"
Merola's Market,1563 North Ave,,Burlington,VT,5408,2430,CHITTENDEN ,"(44.515396, -73.256386)"
Caledonia Farmers Market Association,Pearl Street,,St. Johnsbury,VT,5819,,CALEDONIA ,"(44.413353, -72.017159)"
M.R. Harvest LLC,55 Adams School Rd,,Grand Isle,VT,5458,2107,GRAND ISLE ,"(44.712719, -73.327332)"
Dollar Tree 2232,30 Rutland Shopping Plz,,Rutland,VT,5701,5201,RUTLAND ,"(43.604572, -72.979698)"
Putney Farmers Market,Carol Brown Way,,Putney,VT,5346,,WINDHAM ,"(42.967793, -72.522713)"
Crossroads Travel Center,232 US Route 2 S,,Alburgh,VT,5440,9799,GRAND ISLE ,"(44.959831, -73.277275)"
Killdeer Farm & Farm Stand,163 US Route 5 S,,Norwich,VT,5055,9430,WINDSOR ,"(43.72266, -72.283852)"
Ludlow Farmers Market Inc.,53 Main St,,Ludlow,VT,5149,1114,WINDSOR ,"(43.396698, -72.689873)"
Rays Seafood Market,7 Pinecrest Dr,,Essex Junction,VT,5452,2912,CHITTENDEN ,"(44.505444, -73.134811)"
Hardwick Farmers Market,Granite St.,,Hardwick,VT,5843,4405,CALEDONIA ,"(44.477428, -72.348045)"
Royalton Farmers Market,Railroad St,Town Green,South Royalton,VT,5068,,WINDSOR ,"(43.818245, -72.519928)"
Lyndon Farmers Market Assoc FM,1 Maple St,,Lyndonville,VT,5851,9542,CALEDONIA ,"(44.535507, -72.004929)"
Greensboro Farmers Market Assoc FM,1 Town Hall Park,,Greensboro,VT,5841,,ORLEANS ,"(44.600376, -72.323891)"
B & B Repair Service & Mini Mart,3009 Simonsville Rd,,Chester,VT,5143,9082,WINDSOR ,"(43.241978, -72.724068)"
Walgreens 11526,514 Farrell St,,Burlington,VT,5401,6907,CHITTENDEN ,"(44.450397, -73.207733)"
Rt 7 Liquor & Deli LLC,2659 Shelburne Rd,,Shelburne,VT,5482,6838,CHITTENDEN ,"(44.416885, -73.213066)"
Hardwick Kwik Stop & Deli,454 VT Route 15 W,,Hardwick,VT,5843,9773,CALEDONIA ,"(44.516914, -72.37867)"
Diggers Mirth Collective Farm,145 Intervale Ave,,Burlington,VT,5401,2821,CHITTENDEN ,"(44.488468, -73.210693)"
Simon's College Parkway,865 College Pkwy,,Colchester,VT,5446,3036,CHITTENDEN ,"(44.498535, -73.156471)"
Wellspring Organic Produce,182 Lafiria Pl,,Marshfield,VT,5658,7044,WASHINGTON ,"(44.319817, -72.379356)"
Clear Brook Farm - Knafel Farm Corp,47 Hidden Valley Rd,,Shaftsbury,VT,5262,,BENNINGTON ,"(43.002655, -73.195816)"
Black River Kwik Stop,360 River St,,Springfield,VT,5156,2242,WINDSOR ,"(43.320454, -72.506172)"
Namanste Asian Market,235 Main St,Unit 4,Winooski,VT,5404,1382,CHITTENDEN ,"(44.496193, -73.185425)"
Stone Valley Community Market,216 Main St,,Poultney,VT,5764,1106,RUTLAND ,"(43.517117, -73.23716)"
Dutton Farm Stand 2,407 VT Route 30,,Newfane,VT,5345,9660,WINDHAM ,"(42.973484, -72.658386)"
Dollar General 12793,2757 US Route 5 N,,Windsor,VT,5089,9492,WINDSOR ,"(43.485813, -72.385384)"
Dutton Farm Stand 03,2083 Depot St,,Manchester Center,VT,5255,9465,BENNINGTON ,"(43.175873, -73.019173)"
Tims Convenience Center 53,8132 US Route 2,,Plainfield,VT,5667,9085,WASHINGTON ,"(44.279877, -72.421822)"
Leicester Properties Inc,1620 US Route 7,,Brandon,VT,5733,9350,RUTLAND ,"(43.821537, -73.104019)"
Dollar Tree 4643,570 Shelburne Rd,Ste 1,Burlington,VT,5401,5053,CHITTENDEN ,"(44.449486, -73.209061)"
Chapin Orchard,150 Chapin Rd,,Essex Junction,VT,5452,2204,CHITTENDEN ,"(44.534477, -73.060265)"
Waggys Store And Deli,98 1/2 North Ave,Ste 2,Burlington,VT,5401,2910,CHITTENDEN ,"(44.484566, -73.222374)"
Spice N Nice,223 North St,,Bennington,VT,5201,1898,BENNINGTON ,"(42.882786, -73.196854)"
Dollar General 12564,2537 Route 7,,Pownal,VT,5261,4413,BENNINGTON ,"(42.804119, -73.219803)"
Dollar General 12566,173 Pearl St,,Enosburg Falls,VT,5450,6200,FRANKLIN ,"(44.905151, -72.809998)"
Dollar General 12567,4 Business Ctr Rd,,Williamstown,VT,5679,9321,ORANGE ,"(44.116547, -72.540138)"
KS Enterprises LLC,1301 Main St,,Fairfax,VT,5454,9535,CHITTENDEN ,"(44.674763, -73.019691)"
Mikes Store & Collectables Inc,148 Route 5,,Hartland,VT,5048,,WINDSOR ,"(43.538795, -72.400047)"
Kinney Drugs 103,10212 Route 116,,Hinesburg,VT,5461,,CHITTENDEN ,"(44.335518, -73.113029)"
Family Dollar 8798,34 Maple St,,Wallingford,VT,5773,,RUTLAND ,"(43.476528, -72.977386)"
Barnie's Market,167 Main St,,Concord,VT,5824,,ESSEX ,"(44.429577, -71.892029)"
Fleming Food Mart - Jamaica 21,8811 VT Route 30,,Jamaica,VT,5343,9722,WINDHAM ,"(43.146133, -72.841347)"
Morgan's East Barre Market,130 Mill St,,East Barre,VT,5649,3032,WASHINGTON ,"(44.159725, -72.450974)"
Village Market Of Waterbury,80 S Main St,Ste 1,Waterbury,VT,5676,1540,WASHINGTON ,"(44.334862, -72.753387)"
Granville General Store,5358 VT Route 100,,Granville,VT,5747,9684,ADDISON ,"(43.984386, -72.84584)"
Ocean State Job Lot 426,2000 Memorial Dr,,St Johnsbury,VT,5819,,CALEDONIA ,"(44.462624, -72.014755)"
Belmont General Store,2400 Belmont Rd,,Belmont,VT,5730,9998,RUTLAND ,"(43.414879, -72.821213)"
Big Apple Food Store 1073,280 Portland St,,Saint Johnsbury,VT,5819,2039,CALEDONIA ,"(44.420383, -72.010216)"
Penguin Market 2 LLC,124 Rockingham St,,Bellows Falls,VT,5101,1332,WINDHAM ,"(43.136913, -72.448715)"
Penguin Market LLC,50 Clinton St,,Springfield,VT,5156,3301,WINDSOR ,"(43.293648, -72.477669)"
Beverage Baron Inc,411 N Main St,,Barre,VT,5641,4008,WASHINGTON ,"(44.20369, -72.508919)"
Woodchuck Hollow Farm,285 VT Route 110,,Orange,VT,5641,9754,WASHINGTON ,"(44.145748, -72.434525)"
Grants Village Store,8 East St,,Middletown Springs,VT,5757,4008,RUTLAND ,"(43.485352, -73.117989)"
Breakyard 162,96 Federal St,,Saint Albans,VT,5478,2098,FRANKLIN ,"(44.81282, -73.085373)"
Middle Branch Mkt & Deli - S&L East Randolph  LLC,29 VT Route 14 S,,East Randolph,VT,5041,9551,ORANGE ,"(43.941261, -72.554771)"
Fairfield Farmers Market Online,164 Park St,,Fairfield,VT,5455,5673,FRANKLIN ,"(44.799744, -72.946808)"
JERICHO FARMERS MARKET/Mills Riverside FM LLC,Route 15,Mills Riverside Park,Jericho,VT,5465,,CHITTENDEN ,"(44.502731, -73.0065)"
Eden Farmers Market,637 Old Deuso Rd,,Eden,VT,5652,9737,LAMOILLE ,"(44.711273, -72.554993)"
West River Farmers Market,2306 N Main St,Mill Tavern & Williams Park,Londonderry,VT,5148,,WINDHAM ,"(43.229393, -72.814064)"
Dorset Farmers Market Cooperative,2732 Vt Route 230,,Dorset,VT,5251,,BENNINGTON ,"(43.260468, -73.088364)"
Shelburne Rd Short Stop 104,1830 Shelburne Rd,,South Burlington,VT,5403,7722,CHITTENDEN ,"(44.421986, -73.211876)"
Mobil Short Stop 107,977 Shelburne Rd,,South Burlington,VT,5403,6937,CHITTENDEN ,"(44.442562, -73.209869)"
Alburg II Short Stop 136,320 US Route 2 N,,Alburgh,VT,5440,9730,GRAND ISLE ,"(44.999157, -73.329964)"
Hinesburg Short Stop 143,21 Commerce St,,Hinesburg,VT,5461,9147,CHITTENDEN ,"(44.334778, -73.111076)"
LUNENBURG VARIETY,23 W MAIN ST,,LUNENBURG,VT,5906,,ESSEX ,"(44.463154, -71.683289)"
Jolley South Hero - Mobil 173,337 Route 2,,South Hero,VT,5486,4225,GRAND ISLE ,"(44.645382, -73.307053)"
Jolley 303,341 VT Route 15,,Jericho,VT,5465,3153,CHITTENDEN ,"(44.517368, -72.948395)"
Go Go Mart 156,911 S Main St,,Stowe,VT,5672,4596,LAMOILLE ,"(44.454765, -72.695496)"
Wilmington Short Stop 147,87 E Main St,,Wilmington,VT,5363,9645,WINDHAM ,"(42.865704, -72.863892)"
Rutland II Short Stop 140,351 US Route 4 E,,Rutland,VT,5701,9035,RUTLAND ,"(43.624973, -72.950729)"
Middlebury Short Stop 134,220 Court St,,Middlebury,VT,5753,8984,ADDISON ,"(44.003204, -73.155441)"
Fairgrounds Beverage,103A Pearl St,,Essex Junction,VT,5452,3625,CHITTENDEN ,"(44.495457, -73.122177)"
River Berry Farm,191 Goose Pond Rd,,Fairfax,VT,5454,9585,CHITTENDEN ,"(44.652943, -72.974457)"
Family Dollar 8524,53 E Main St,,Wilmington,VT,5363,9645,WINDHAM ,"(42.866425, -72.86702)"
Lakefront Express Mart-deli/bakery,28 Cross St,,Island Pond,VT,5846,3002,ESSEX ,"(44.814701, -71.881119)"
Champlain Farms 275,3705 US Route 7,,Pittsford,VT,5763,9478,RUTLAND ,"(43.706863, -73.021446)"
Eden Farmers Market,120 Knowles Flat Rd,Eden Central School - Outdoors,Eden,VT,5652,,LAMOILLE ,"(44.703465, -72.565216)"
Jiffy Mart 15,232 Grove St,,Brandon,VT,5733,1028,RUTLAND ,"(43.802639, -73.096176)"
Jiffy Mart 18,39 South Main Street,,Chester,VT,5143,,WINDSOR ,"(43.262714, -72.594231)"
Jiffy Mart 10,346 N Main St,,Barre,VT,5641,4148,WASHINGTON ,"(44.201694, -72.506935)"
Jiffy Mart 38,169 Railroad St,,Saint Johnsbury,VT,5819,2667,CALEDONIA ,"(44.414997, -72.016541)"
Jiffy Mart P&h Truckstop 37,2886 Route 302,,Wells River,VT,5081,9730,ORANGE ,"(44.158558, -72.088104)"
Jiffy Mart 36,973 E Barre Rd,,East Barre,VT,5649,3033,WASHINGTON ,"(44.161686, -72.449265)"
Jiffy Mart 22,6800 Woodstock Road,,Quechee,VT,5059,241,WINDSOR ,"(43.648014, -72.424126)"
Jiffy Mart 30,110 Kennedy Dr,,South Burlington,VT,5403,7113,CHITTENDEN ,"(44.454227, -73.166275)"
Jiffy Mart 32,2045 Us Rt 7,,East Dorset,VT,5253,727,BENNINGTON ,"(43.239803, -73.010262)"
Jiffy Mart 17,4276 Vt Route 106,,Perkinsville,VT,5151,9632,WINDSOR ,"(43.399738, -72.514702)"
Jiffy Mart 43,133 Blakely Rd,Ste 102,Colchester,VT,5446,3984,CHITTENDEN ,"(44.543076, -73.213821)"
Jiffy Mart 44,107 Mill Street,,Hardwick,VT,5843,,CALEDONIA ,"(44.503765, -72.364265)"
Jiffy Mart 31,17 Ballards-corners,,Hinesburg,VT,5461,9701,CHITTENDEN ,"(44.341095, -73.117882)"
Jiffy Mart 26,500 Essex Rd,,Williston,VT,5495,7194,CHITTENDEN ,"(44.475159, -73.11338)"
Jiffy Mart 27,5637 Shelburne Rd,,Shelburne,VT,5482,6507,CHITTENDEN ,"(44.375656, -73.229408)"
Jiffy Mart 28,Corner Of Us7 & Vt17,,New Haven,VT,5472,,ADDISON ,"(44.119373, -73.156204)"
Route 4 Country Store,3699 Woodstock Rd,,White River Junction,VT,5001,9124,WINDSOR ,"(43.659115, -72.387543)"
Bay Store,585 Lake Rd,,Saint Albans,VT,5478,7055,FRANKLIN ,"(44.80777, -73.139397)"
Harmony Circle Farm CSA,51 Holden Rd,,Putney,VT,5346,8947,WINDHAM ,"(43.02684, -72.570335)"
Keep It Real Organics LLC,166 Halls Farm Ln,,Jamaica,VT,5343,4426,WINDHAM ,"(43.072952, -72.737976)"
Hog Island Market,172 Lakewood Dr,,Swanton,VT,5488,8066,FRANKLIN ,"(44.9529, -73.221771)"
Rivers Edge Quik Stop LLC,1401 US Route 2,,Marshfield,VT,5658,,WASHINGTON ,"(44.351742, -72.348122)"
Four Acre Farm LLC,776 Glover Rd,,Barton,VT,5822,,ORLEANS ,"(44.73724, -72.182594)"
North Wolcott Country Store Inc,3737 N Wolcott Rd,,Wolcott,VT,5680,3056,LAMOILLE ,"(44.606956, -72.464439)"
Kinney Drugs 107,47 Executive Dr,,Shelburne,VT,5482,,CHITTENDEN ,"(44.406078, -73.214935)"
Liptonmart (701) 701,429 Canal St,,Brattleboro,VT,5301,6619,WINDHAM ,"(42.840313, -72.564743)"
Liptonmart (702) 702,328 Marlboro Rd,,Brattleboro,VT,5301,9725,WINDHAM ,"(42.865963, -72.615807)"
Family Dollar 10000,90A Center Rd,,Essex Junction,VT,5452,2606,CHITTENDEN ,"(44.510937, -73.066422)"
South Burlington Farmers Market,550 Dorset St,,South Burlington,VT,5403,6296,CHITTENDEN ,"(44.4543, -73.178848)"
Farm Store - Naturally Local,50 Old Main St,Unit 1,Jeffersonville,VT,5464,,LAMOILLE ,"(44.647644, -72.827667)"
Maplefields at St Albans 43,555 Fairfax Rd,,Saint Albans,VT,5478,4447,FRANKLIN ,"(44.795242, -73.073647)"
Sammys Quick Stop/Saini&Saeed Enterprises LLC,264 Malletts Bay Ave,Apt A,Winooski,VT,5404,1758,CHITTENDEN ,"(44.497478, -73.194977)"
Greater Falls Pharmacy Inc,78 Atkinson St,,Bellows Falls,VT,5101,1321,WINDHAM ,"(43.133762, -72.450172)"
Kingdom Meats,462 Railroad St,Apt 1,Saint Johnsbury,VT,5819,5604,CALEDONIA ,"(44.41914, -72.015518)"
Grand Union 742,82 VT Route 15 W,,Hardwick,VT,5843,9454,CALEDONIA ,"(44.507896, -72.360809)"
Grand Union 741,101 N Main St,,Northfield,VT,5663,6836,WASHINGTON ,"(44.150833, -72.655762)"
Grand Union 740,12 N Main St,,Rutland,VT,5701,3245,RUTLAND ,"(43.609108, -72.972328)"
Craftsbury General Store,118 S Craftsbury Rd,Ste 2,Craftsbury,VT,5826,9022,ORLEANS ,"(44.634686, -72.371819)"
Dollar General 13411,53 E Main St,,North Troy,VT,5859,9590,ORLEANS ,"(44.995598, -72.399132)"
Harbor View General Store/Mabell LLC,33 Creek Rd,,Hydeville,VT,5750,,RUTLAND ,"(43.605175, -73.233704)"
Alburg Village Store,13 S Main St,,Alburgh,VT,5440,4300,GRAND ISLE ,"(44.975304, -73.300804)"
BARRE STREET MKT,203 Barre St,,Montpelier,VT,5602,3622,WASHINGTON ,"(44.253437, -72.570152)"
Richfords Main Street Grocery,44 Main St,Ste 100,Richford,VT,5476,1141,FRANKLIN ,"(44.996235, -72.67234)"
Winooski Falls Market & Deli,65 Winooski Falls Way,Ste B104,Winooski,VT,5404,,CHITTENDEN ,"(44.490307, -73.182709)"
Family Dollar 8626,895 Putney Rd,,Brattleboro,VT,5301,9047,WINDHAM ,"(42.879475, -72.559349)"
Winhall Market,40 VT Route 30,,Bondville,VT,5340,9705,BENNINGTON ,"(43.144512, -72.874855)"
Dollar General 13165,11 N Main St,,Northfield,VT,5663,6720,WASHINGTON ,"(44.149174, -72.656097)"
Family Dollar 8565,23 Carson Ln,,Bradford,VT,5033,,ORANGE ,"(43.98901, -72.123451)"
Canal St. Gulf 301,414 Canal St,,Brattleboro,VT,5301,6622,WINDHAM ,"(42.840755, -72.564499)"
Allen Bros Inc.,6023 Us Route 5,,Westminster,VT,5158,9704,WINDHAM ,"(43.096809, -72.443733)"
St Albans Coop Store,140 Federal St,,Saint Albans,VT,5478,2000,FRANKLIN ,"(44.815636, -73.084892)"
Central Market Winooski,35 W Allen St,,Winooski,VT,5404,2104,CHITTENDEN ,"(44.491436, -73.188332)"
Essex Discount Beverage,76 Center Rd,,Essex Junction,VT,5452,2606,CHITTENDEN ,"(44.510796, -73.06868)"
Pete's Greens CSA,266 S Craftsbury Rd,,Craftsbury,VT,5826,9017,ORLEANS ,"(44.633305, -72.369987)"
Springfield Community Market,6 Valley St,,Springfield,VT,5156,2521,WINDSOR ,"(43.299747, -72.481865)"
Groton Growers Farmers Market,1476 Scott Hwy,,Groton,VT,5046,5603,CALEDONIA ,"(44.211205, -72.197495)"
7-Eleven 32510,1020 Western Ave,,Brattleboro,VT,5301,,WINDHAM ,"(42.85553, -72.601807)"
"The Town Store, LLC",2003 Rte 5A,,Westmore,VT,5860,,ORLEANS ,"(44.826866, -72.239998)"
Randolph Farmers Market,26 Central St,,Randolph,VT,5060,1024,ORANGE ,"(43.92828, -72.661049)"
CVS 7103,2466 St George Rd,,Williston,VT,5495,7432,CHITTENDEN ,"(44.446552, -73.111214)"
New Promise Farm,286 Lapland Ext,,East Fairfield,VT,5448,4848,FRANKLIN ,"(44.753727, -72.895866)"
Fletcher Allen Farmers' Market,111 Colchester Ave,,Burlingtton,VT,5401,,CHITTENDEN ,"(44.480671, -73.196548)"
FAMILY DOLLAR STORE 10137,4503 US Route 5,,Newport,VT,5855,9485,ORLEANS ,"(44.951553, -72.159904)"
Neighborhood Market LLC,457 Saint Paul St,,Burlington,VT,5401,5621,CHITTENDEN ,"(44.466927, -73.20948)"
Lorettas Good Food Deli,638 Route 103,,North Clarendon,VT,5759,9665,RUTLAND ,"(43.541096, -72.956085)"
Barnard General Store,6134 Vt Route 12,,Barnard,VT,5031,,WINDSOR ,"(43.728317, -72.618835)"
Eden General Store Inc,2918 VT Route 100,,Eden,VT,5652,9681,LAMOILLE ,"(44.707283, -72.545433)"
Castleton Corner Deli And Gas,16 Route 4A E,,Castleton,VT,5735,9806,RUTLAND ,"(43.613811, -73.165596)"
LBJ's Grocery,44 Worcester Village Rd,,Worcester,VT,5682,9685,WASHINGTON ,"(44.371002, -72.550682)"
Paulines Quick Stop,682 Mill St,,Sheldon Springs,VT,5485,,FRANKLIN ,"(44.903168, -72.97374)"
Mina Mart,209 River St,,Springfield,VT,5156,2917,WINDSOR ,"(43.303875, -72.490372)"
Pete's Greens Farm Stand,266 S Craftsbury Rd,,Craftsbury,VT,5826,9017,ORLEANS ,"(44.633305, -72.369987)"
Watroba's General Store,821 Route 106,,Reading,VT,5062,7702,WINDSOR ,"(43.455883, -72.537109)"
West Wardsboro Store,47 Cross Road,,West Wardsboro,VT,5360,,WINDHAM ,"(43.029179, -72.854446)"
Putney General Store,4 Kimball Hill Rd S,,Putney,VT,5346,9036,WINDHAM ,"(42.975273, -72.521957)"
West Enosburg Country Store LLC,2349 W Enosburg Rd,,Enosburg Falls,VT,5450,5014,FRANKLIN ,"(44.87273, -72.796967)"
Route 106N Market & Deli,112 Route 106,,North Springfield,VT,5150,9605,WINDSOR ,"(43.343697, -72.532005)"
Kerrys Kwik Stop Purchaser LLC,249 Saint Paul St,,Burlington,VT,5401,4639,CHITTENDEN ,"(44.472286, -73.213768)"
Dollar General 14217,764 E Barre Rd,,Barre,VT,5641,9016,WASHINGTON ,"(44.171535, -72.464317)"
Aldi 31,263 S Main St,,Rutland,VT,5701,4905,RUTLAND ,"(43.590305, -72.968948)"
Riverside Beverage,500 Riverside Ave,,Burlington,VT,5401,1452,CHITTENDEN ,"(44.488995, -73.202431)"
Johnson's Sterling Market,131 Lower Main West,,Johnson,VT,5656,,LAMOILLE ,"(44.636082, -72.681808)"
Garden Arts Fresh Market,557 Depot St,,Manchester Center,VT,5255,4431,BENNINGTON ,"(43.172874, -73.047417)"
Wal-Mart 2332,424 Swanton Rd,,Saint Albans,VT,5478,2610,FRANKLIN ,"(44.842239, -73.084442)"
Top Box Middlebury Foods Co.,118 S Main St,,Middlebury,VT,5753,1615,ADDISON ,"(44.008953, -73.173111)"
Dollar General 14270,2802 VT Route 7A,,Arlington,VT,5250,8870,BENNINGTON ,"(43.059559, -73.159737)"
"Hardwick Village Market, Inc.",13 Mill Street,,Hardwick,VT,5843,,CALEDONIA ,"(44.50452, -72.365891)"
The Final Cut Movies & Games,105 Westminster St,,Bellows Falls,VT,5101,1548,WINDHAM ,"(43.128136, -72.444191)"
West Barnet Quick Stop,113 W Main St,,Barnet,VT,5821,9789,CALEDONIA ,"(44.311382, -72.134758)"
Renes Discount Beverage,105 River St,,Milton,VT,5468,3646,CHITTENDEN ,"(44.631939, -73.115311)"
Arabic Supermarket LLC,70 Roosevelt Hwy,,Colchester,VT,5446,5971,CHITTENDEN ,"(44.503445, -73.182007)"
Pownal Market and Deli,3000 Route 7,,Pownal,VT,5261,9648,BENNINGTON ,"(42.798035, -73.220879)"
Belmains,17 N Main St,,Randolph,VT,5060,1126,ORANGE ,"(43.923286, -72.665024)"
Richford Jolley 325,308 South Main Street,,Richford,VT,5476,,FRANKLIN ,"(44.988731, -72.677116)"
West Side Market and Deli,498 Highland Ave.,,Newport,VT,5855,,ORLEANS ,"(44.933758, -72.226357)"
Dollar General 14357,262 Main St,,Bennington,VT,5201,2106,BENNINGTON ,"(42.879723, -73.199745)"
West Addison General Store,5944 Vt Route 17 W,,Vergennes,VT,5491,9233,ADDISON ,"(44.064384, -73.406593)"
Williams's Country Store,27 Whitesville Rd,,Cavendish,VT,5142,4420,WINDSOR ,"(43.392174, -72.595032)"
Food Connects Local Food Buying Clubs,19 Church Pl,Apt 2,Brattleboro,VT,5301,7001,WINDHAM ,"(42.850277, -72.561913)"
Newbury Village Store,4991 Main Street South Rte 5,,Newbury,VT,5051,393,ORANGE ,"(44.079224, -72.057693)"
Bourne Food Mart,18 Bridge St,,Morrisville,VT,5661,8503,LAMOILLE ,"(44.563568, -72.599174)"
Ste. Maries,31 Grand Ave,,Swanton,VT,5488,1412,FRANKLIN ,"(44.917912, -73.124176)"
CVS 10127,1634 US Route 302,,Barre,VT,5641,2322,WASHINGTON ,"(44.140396, -72.317673)"
JD's Quick Stop,523 Route 100,,Hancock,VT,5748,9818,ADDISON ,"(43.916477, -72.840828)"
Aldi 32,762 Putney Rd,,Brattleboro,VT,5301,8690,WINDHAM ,"(42.873981, -72.559723)"
Cap'n Cork Beverage Discount,164 Porters Point Rd,Ste 2,Colchester,VT,5446,6416,CHITTENDEN ,"(44.537743, -73.250046)"
Wood's Market Garden,93 Wood Ln,,Brandon,VT,5733,8645,RUTLAND ,"(43.78503, -73.062675)"
D.J.'s Maple Ave. Deli,39 Maple Ave,,Barre,VT,5641,2942,WASHINGTON ,"(44.204144, -72.505463)"
St. Albans Jolley 150,711 Fairfax Rd,,Saint Albans,VT,5478,4424,FRANKLIN ,"(44.795425, -73.073601)"
Jolley Mobil 146,1110 Shelburne Rd,,South Burlington,VT,5403,6942,CHITTENDEN ,"(44.438248, -73.210243)"
Williston Road Short Stop 105,1314 Williston Rd,,South Burlington,VT,5403,5766,CHITTENDEN ,"(44.467049, -73.171837)"
Circle Mountain Farm,280 Lee Rd,,Guilford,VT,5301,8527,WINDHAM ,"(42.812336, -72.633583)"
The Great Energy Store,509 South Barre Road,,South Barre,VT,5670,,WASHINGTON ,"(44.172916, -72.507744)"
Libbey's Meat Market,933 E Burke Rd,,Lyndonville,VT,5851,9109,CALEDONIA ,"(44.550205, -71.98465)"
Wild Carrot Farm Store,511 Upper Dummerston Rd,,Brattleboro,VT,5301,9096,WINDHAM ,"(42.874996, -72.583382)"
Dollar General 15340,540 N Main St,,Barre,VT,5641,2504,WASHINGTON ,"(44.208008, -72.513702)"
Milton Farmers' Market,209 Route 7 S,,Milton,VT,5468,4570,CHITTENDEN ,"(44.62479, -73.118019)"
Jeffersonville Farmers' And Artisan Market,4809 Route 15 & 108s,,Jeffersonville,VT,5464,,LAMOILLE ,"(44.644623, -72.834114)"
Hartland Farmers' Market,153 Route 5,At The Library,Hartland,VT,5048,,WINDSOR ,"(43.539333, -72.399719)"
Jiffy Mart 45,355 Main St,,West Rutland,VT,5777,9520,RUTLAND ,"(43.593224, -73.044769)"
Jiffy Mart,932 Memorial Dr,,Saint Johnsbury,VT,5819,9243,CALEDONIA ,"(44.445816, -72.015549)"
The Sticks Country Store and Deli Inc,1711 North Main St,,Montgomery,VT,5470,,FRANKLIN ,"(44.900162, -72.634308)"
Bristol Discount Beverage And Redemption,21 Prince Ln,,Bristol,VT,5443,1224,ADDISON ,"(44.133438, -73.076363)"
"James Petro, LLC",97 Westminster St,,Bellows Falls,VT,5101,1544,WINDHAM ,"(43.128883, -72.444412)"
Family Dollar 9263,199 R 7 South,Ste 103,Milton,VT,5468,3605,CHITTENDEN ,"(44.631989, -73.115326)"
Rb's Delicatessen,232 Chelsea St,,South Royalton,VT,5068,,WINDSOR ,"(43.819984, -72.522118)"
Trader Joe's 527,200 Dorset St,,South Burlington,VT,5403,6243,CHITTENDEN ,"(44.463696, -73.180672)"
Dollar General 15225,200 S Main St,,Rutland,VT,5701,4812,RUTLAND ,"(43.594734, -72.969688)"
Bayside Triple M & Deli,49 Heineberg Dr,,Colchester,VT,5446,,CHITTENDEN ,"(44.53598, -73.248154)"
Jiffy Mart 35,530 Waits River Rd,,Bradford,VT,5033,8200,ORANGE ,"(43.981556, -72.121368)"
Dollar General 15501,1755 US Rte 302,,Berlin,VT,5602,,WASHINGTON ,"(44.233315, -72.553932)"
Wood Meadow Market,342 Main St N,,Enosburg Falls,VT,5450,5990,FRANKLIN ,"(44.907536, -72.804901)"
Paul Mazza's Fruit And Vegetable Stand,182 River Rd,,Essex Junction,VT,5452,3946,CHITTENDEN ,"(44.479092, -73.059029)"
Will's Store,293 Vt Rte 110,,Chelsea,VT,5038,4411,ORANGE ,"(43.95504, -72.464561)"
305 South,305 South St,,Bennington,VT,5201,2370,BENNINGTON ,"(42.876152, -73.197296)"
Dollar Tree 5666,66 Morrisville Plz,,Morrisville,VT,5661,,LAMOILLE ,"(44.574417, -72.59227)"
Meadow Mart,284 Elm St,,Montpelier,VT,5602,2211,WASHINGTON ,"(44.266003, -72.569107)"
Jersey Girls Farm Cafe And Market,32 Vt Route 10,,Chester,VT,5143,9791,WINDSOR ,"(43.324661, -72.605453)"
King's Corner Deli,41 King St,,Burlington,VT,5401,4702,CHITTENDEN ,"(44.47459, -73.217209)"
Middlesex Country Store Inc.,903 US Route 2,,Montpelier,VT,5602,8872,WASHINGTON ,"(44.292213, -72.678162)"
Orwell Gas N Go,330 Route 22a,,Orwell,VT,5760,9619,ADDISON ,"(43.802277, -73.305305)"
Dollar Tree 5657,499 Canal St,Ste 6,Brattleboro,VT,5301,3421,WINDHAM ,"(42.83881, -72.565285)"
Morrisville Farmers Market,Portland Street,,Morrisville,VT,5661,,LAMOILLE ,"(44.563526, -72.598389)"
Cumberland Farms 8034,957 Broad St,,Lyndonville,VT,5851,8703,CALEDONIA ,"(44.533012, -72.002991)"
Dollar General 14214,864 Ethan Allen Hwy,,Milton,VT,5468,9710,CHITTENDEN ,"(44.691429, -73.108757)"
Everest Asian Market,62 Pearl St,,Essex Junction,VT,5452,3620,CHITTENDEN ,"(44.493355, -73.117874)"
Jake's South Street Market,181 South St,,Springfield,VT,5156,3219,WINDSOR ,"(43.285877, -72.476929)"
Milton Beverage,484 Route 7 S,,Milton,VT,5468,3873,CHITTENDEN ,"(44.627693, -73.142525)"
Dollar General 14930,234 US Route 2 S,,Alburgh,VT,5440,9799,GRAND ISLE ,"(44.959705, -73.277069)"
CVS 10126,4730 US Route 5,,Newport,VT,5855,9480,ORLEANS ,"(44.951237, -72.162872)"
KINNEY DRUGS  11,800 US Route 302,,Barre,VT,5641,2310,WASHINGTON ,"(44.169243, -72.461082)"
KINNEY DRUGS  18,164 Swanton Rd,,Saint Albans,VT,5478,2601,FRANKLIN ,"(44.8358, -73.080101)"
KINNEY DRUGS 22,115B Monkton Rd,,Vergennes,VT,5491,9778,ADDISON ,"(44.171837, -73.240158)"
KINNEY DRUGS 38,40 Court St,Ste 1,Middlebury,VT,5753,4449,ADDISON ,"(44.011189, -73.163826)"
HANNAFORD  301,141 Hannaford Sq,Ste 2,Bennington,VT,5201,1653,BENNINGTON ,"(42.907318, -73.222588)"
DESORCIE'S,PO Box 97,,Highgate Center,VT,5459,97,FRANKLIN ,"(44.954765, -73.018555)"
HANNAFORD FOOD & DRUG 355,277 Swanton Rd,,St Albans,VT,5478,,FRANKLIN ,"(44.837875, -73.081413)"
Cumberland Farms 8034,957 Broad St,,Lyndonville,VT,5851,8703,CALEDONIA ,"(44.533012, -72.002991)"
Hunger Mountain Coop Inc.,623 Stone Cutters Way,,Montpelier,VT,5602,3635,WASHINGTON ,"(44.253525, -72.571404)"
KEELERS BAY VARIETY INC,500 Route 2,,South Hero,VT,5486,4219,GRAND ISLE ,"(44.662094, -73.322144)"
MAYHEW'S CORNER STORE,1 River St,,Richford,VT,5476,1224,FRANKLIN ,"(44.996929, -72.670883)"
BRAULTS MARKET,6673 VT Route 100,,Troy,VT,5868,,ORLEANS ,"(44.904076, -72.404144)"
CURRIERS QUALITY MKT INC,1 Main St,,Glover,VT,5839,,ORLEANS ,"(44.665142, -72.215668)"
Schwans Home Service BELLOWS FALLS DEPOT #111150 111150,ROUTE 5 SOUTH,,BELLOWS FALLS,VT,5101,,WINDHAM ,"(43.182095, -72.492043)"
BARNET VILLAGE STORE,90 MONUMENT CIRCLE,,BARNET,VT,5821,,CALEDONIA ,"(44.296574, -72.049606)"
WILLEY'S STORE INC,7 Breezy Ave,,Greensboro,VT,5841,,ORLEANS ,"(44.575714, -72.295815)"
Schwans Home Service BARRE DEPOT #111180 111180,72 Pitman Rd,,Barre,VT,5641,8933,WASHINGTON ,"(44.172619, -72.484314)"
MEHURON'S MARKET LTD,RT 100 VILLAGE SQ SHP,,WAITSFIELD,VT,5673,59,WASHINGTON ,"(44.18663, -72.843803)"
A & B BEVERAGE,193 US Route 2,,Grand Isle,VT,5458,2457,GRAND ISLE ,"(44.71941, -73.295013)"
WHITE MARKET,128 MAIN STREET,,Lyndonville,VT,5851,45,CALEDONIA ,"(44.53574, -72.004692)"
TRACYS MIDWAY STATION,5326 Vermont Route 14,,Sharon,VT,5065,6501,WINDSOR ,"(43.782898, -72.459999)"
MIDDLE ROAD MARKET,69 Middle Rd,,Milton,VT,5468,3730,CHITTENDEN ,"(44.619022, -73.120003)"
HASTINGS STORE,2748 US Route 2 W,,West Danville,VT,5873,9998,CALEDONIA ,"(44.408775, -72.194504)"
CENTRAL MARKET INC,50 Summer St,,Barre,VT,5641,3726,WASHINGTON ,"(44.200596, -72.503014)"
C P DUDLEY STORE,US ROUTE 2,,E MONTPELIER,VT,5651,146,WASHINGTON ,"(44.244755, -72.504112)"
STERN'S QUALITY PRODUCE,83 Pine St,,White River Junction,VT,5001,7031,WINDSOR ,"(43.652912, -72.317177)"
R DENTE MARKET,406 N Main St,,Barre,VT,5641,4090,WASHINGTON ,"(44.203369, -72.508728)"
HANNAFORD  353,21A Essex Way,,Essex Jct,VT,5452,,CHITTENDEN ,"(44.503815, -73.079834)"
COBURNS GENERAL STORE,216 VT Rte 132,,South Strafford,VT,5070,9700,ORANGE ,"(43.834152, -72.360786)"
HEALTHY LIVING,222 Dorset St,,S Burlington,VT,5403,6243,CHITTENDEN ,"(44.462925, -73.180527)"
CUMBERLAND FARMS 8012,604 Portland St,,St Johnsbury,VT,5819,2057,CALEDONIA ,"(44.421101, -72.003487)"
TOMS CUSTOM MEAT CUTTING,4 2nd St,,Fair Haven,VT,5743,1045,RUTLAND ,"(43.598831, -73.266884)"
CENTER MARKET INC,3897 ETHAN ALLEN HWY,,GEORGIA,VT,5457,,FRANKLIN ,"(44.727173, -73.118019)"
WINGS SUPERMARKET- FAIRLEE,9 Route 5 S,,FAIRLEE,VT,5045,,ORANGE ,"(43.904003, -72.149841)"
HANNAFORD 303,218 Hanneford Dr,,South Burlington,VT,5403,6958,CHITTENDEN ,"(44.441837, -73.214211)"
DICK MAZZAS GENERAL STORE INC,777 W Lakeshore Dr,,Colchester,VT,5446,1539,CHITTENDEN ,"(44.550491, -73.229347)"
SHELBURNE SUPERMARKET,20 Shelburne Shopping Park,,Shelburne,VT,5482,,CHITTENDEN ,"(44.379173, -73.225838)"
WINOOSKI VALLEY COOPERATIVE,MAIN STREET,,PLAINFIELD,VT,5667,,WASHINGTON ,"(44.278084, -72.425957)"
SHOPPING BAG INC,166 North St,,Burlington,VT,5401,4254,CHITTENDEN ,"(44.484695, -73.215393)"
HANNAFORD 357,217 Dorset St,,South Burlington,VT,5403,6208,CHITTENDEN ,"(44.463211, -73.180695)"
LANTMAN'S MARKET,10681 Route 116,,Hinesburg,VT,5461,,CHITTENDEN ,"(44.328854, -73.110214)"
CUMBERLAND FARMS 8001,E MAIN ST & SIAS AVE,,NEWPORT,VT,5855,,ORLEANS ,"(44.94305, -72.193748)"
CITY MARKET,82 S Winooski Ave,,Burlington,VT,5401,3830,CHITTENDEN ,"(44.47813, -73.211105)"
CUMBERLAND FARMS 8002,706 N Main St,,Northfield,VT,5663,6832,WASHINGTON ,"(44.15881, -72.657036)"
Tallmans Store,4286 Main St,Vt Rte 109,BELVIDERE,VT,5442,,LAMOILLE ,"(44.756077, -72.676796)"
BUFFALO MOUNTAIN CO-OP,39 S Main ST,,HARDWICK,VT,5843,,CALEDONIA ,"(44.504223, -72.366814)"
PUTNEY CONSUMERS COOPERATIVE,8 Carol Brown Way,,Putney,VT,5346,,WINDHAM ,"(42.967758, -72.523193)"
BRATTLEBORO FOOD CO-OP,2 Main St,,Brattleboro,VT,5301,3201,WINDHAM ,"(42.850807, -72.557472)"
BOBS MEAT MKT,23 Barlow St,,Saint Albans,VT,5478,1702,FRANKLIN ,"(44.806389, -73.077362)"
PRATTS STORE INC,2504 VT Route 22a,,Bridport,VT,5734,9700,ADDISON ,"(43.994846, -73.311501)"
MIDDLEBURY NATURAL FOOD CO-OP INC,9 Washington St,,Middlebury,VT,5753,1215,ADDISON ,"(44.014717, -73.164978)"
CUMBERLAND FARMS 8003,7 Central St,,Randolph,VT,5060,1057,ORANGE ,"(43.927513, -72.665398)"
CUMBERLAND FARMS 8009,308 N Main St,,Wallingford,VT,5773,9557,RUTLAND ,"(43.476585, -72.976334)"
CLARKS LONDONDERRY IGA,5700 VT Route 100,,Londonderry,VT,5148,9400,WINDHAM ,"(43.229153, -72.815071)"
BG'S MARKET INC,ROUTE 5,,HARTLAND,VT,5048,108,WINDSOR ,"(43.520164, -72.401405)"
EVANSVILLE TRADING POST,645 Evansville Rd,,Orleans,VT,5860,9597,ORLEANS ,"(44.803276, -72.132378)"
WOLCOTT STORE INC,MAIN ST  ROUTE 15,,WOLCOTT,VT,5680,10,LAMOILLE ,"(44.532207, -72.425606)"
Singletons VT Inc,356 Main St,,Proctorsville,VT,5153,,WINDSOR ,"(43.381863, -72.640327)"
BEDARDS CASH MARKET,137 Library Ave,,Rutland,VT,5701,2811,RUTLAND ,"(43.611889, -72.987373)"
SMITH'S GROCERY,767 MAIN ST,,GREENSBORO BEND,VT,5842,88,ORLEANS ,"(44.550484, -72.261925)"
PRUNIERS MARKET,672 Route 4A,,Bomoseen,VT,5732,,RUTLAND ,"(43.608471, -73.208435)"
WHITE MARKET,385 Portland St,,St Johnsbury,VT,5819,2023,CALEDONIA ,"(44.420609, -72.008751)"
EDEN MINI MART,ROUTE 100,,EDEN,VT,5652,,LAMOILLE ,"(44.683338, -72.591507)"
CAGGIGE'S MARKET,172 Granger St,,Rutland,VT,5701,4406,RUTLAND ,"(43.597504, -72.9786)"
SYLVESTERS STORE,20 Main St,,Montgomery Center,VT,5471,7107,FRANKLIN ,"(44.877556, -72.608223)"
PRICE CHOPPER  141,857 Memorial Dr,,St Johnsbury,VT,5819,9272,CALEDONIA ,"(44.443954, -72.015327)"
BETHEL CENTRAL MARKET,MAIN ST,,BETHEL,VT,5032,,WINDSOR ,"(43.828552, -72.630753)"
ISLE LAMOTTE COUNTRY STORE,68 SCHOOL ST,,ISLE LAMOTTE,VT,5463,,GRAND ISLE ,"(44.877567, -73.340073)"
Bimbo Bakeries 8818,1188 Memorial Dr,,Saint Johnsbury,VT,5819,9249,CALEDONIA ,"(44.449493, -72.015564)"
RUTLAND AREA FOOD CO-OP,77 Wales St,,Rutland,VT,5701,4028,RUTLAND ,"(43.605968, -72.977547)"
BEAUDRYS MARKET,2177 Main Rd,,Huntington,VT,5462,9659,CHITTENDEN ,"(44.325993, -72.987183)"
HANNAFORD  398,78 Marshall Ave,,Williston,VT,5495,8920,CHITTENDEN ,"(44.445045, -73.115067)"
CUMBERLAND FARMS 8000,ROCKINGHAM ST,,BELLOWS FALLS,VT,5101,,WINDHAM ,"(43.134155, -72.44442)"
CUMBERLAND FARMS  8005,183 Main St,,Windsor,VT,5089,1305,WINDSOR ,"(43.476063, -72.388069)"
RITE AID 2481,107 E Main St,,Wilmington,VT,5363,,WINDHAM ,"(42.865585, -72.863457)"
TENNEY BROOK MARKET,217 N Main St,,Rutland,VT,5701,2412,RUTLAND ,"(43.624004, -72.975197)"
HANNAFORD 397,896 Putney Rd,Unit 5,Brattleboro,VT,5301,8844,WINDHAM ,"(42.878963, -72.559647)"
NEW MORNING NATURAL FOODS,298 Depot St,,Manchester Center,VT,5255,,BENNINGTON ,"(43.174484, -73.052109)"
Woodstock Farmers Market,468 Woodstock Rd,,Woodstock,VT,5091,1253,WINDSOR ,"(43.616993, -72.542191)"
EAST MAIN MINI MART,477 E Main St,,Newport,VT,5855,5826,ORLEANS ,"(44.943077, -72.194229)"
CUMBERLAND FARMS 8006,107 Northside Dr,,Bennington,VT,5201,1877,BENNINGTON ,"(42.895882, -73.204247)"
CUMBERLAND FARMS INC 8013,535 Main St,,FAIRLEE,VT,5045,,ORANGE ,"(43.914597, -72.195129)"
SHAW'S SUPERMARKET 07516,160A Paine Tpke N,,Berlin,VT,5602,9146,WASHINGTON ,"(44.21217, -72.575195)"
SHAW'S SUPERMARKET 07515,600 Mountain View Dr,,Colchester,VT,5446,1901,CHITTENDEN ,"(44.511616, -73.184433)"
GOUGERS MARKET & DELI,121 Canal St,,Brattleboro,VT,5301,6440,WINDHAM ,"(42.848301, -72.561325)"
HANNAFORD SUPERMARKET & PHARMACY 306,318 S Main St,Green Mountain Plaza,Rutland,VT,5701,,RUTLAND ,"(43.585178, -72.967941)"
LOWELL GENERAL STORE,3042 VT Route 100,,Lowell,VT,5847,9794,ORLEANS ,"(44.793503, -72.44825)"
STEWARTS SHOP 196,194 Woodstock Ave,,Rutland,VT,5701,3304,RUTLAND ,"(43.617985, -72.956909)"
DJ'S CONVIENCE STORE,56 River St,,Montpelier,VT,5602,3721,WASHINGTON ,"(44.249245, -72.565994)"
BURLINGTON BEVERAGE CENTER,208 N Winooski Ave,,Burlington,VT,5401,3618,CHITTENDEN ,"(44.486115, -73.209991)"
SMALL CITY MARKET,2 S Water St,,Vergennes,VT,5491,1299,ADDISON ,"(44.166859, -73.253876)"
"WETHERBY'S QUIK STOP,INC",75 Main St,,Richford,VT,5476,1122,FRANKLIN ,"(44.995373, -72.672668)"
MAC'S STOWE MARKET,88 S Main St,,Stowe,VT,5672,4871,LAMOILLE ,"(44.464981, -72.689407)"
ROXBURY COUNTRY STORE,1616 Roxbury Rd,,Roxbury,VT,5669,9702,ADDISON ,"(44.091591, -72.733727)"
PRICE CHOPPER  127,170 Swanton Rd,,Saint Albans,VT,5478,2601,FRANKLIN ,"(44.836491, -73.080551)"
PUMP & PANTRY,32 Business Ctr Rd,,Williamstown,VT,5679,9321,ORANGE ,"(44.116592, -72.539604)"
St Johnsbury Community Food Cooperative,490 Portland St,,St Johnsbury,VT,5819,2171,CALEDONIA ,"(44.420841, -72.005951)"
WHITE MARKET,PO Box 1519,,Lyndonville,VT,5851,1519,CALEDONIA ,"(44.551388, -72.050949)"
KAMUDAS COUNTRY SUPERMARKET,MAIN STREET,,PITTSFORD,VT,5763,,RUTLAND ,"(43.748642, -72.986786)"
CUMBERLAND FARMS 8004,212 S Main St,,Rutland,VT,5701,4813,RUTLAND ,"(43.593529, -72.969452)"
HANLEY'S STORE,1 Main St,,West Danville,VT,5873,9600,CALEDONIA ,"(44.453671, -72.209999)"
Mr G's Liquidation Center,371 US Route 5 S,,Windsor,VT,5089,9493,WINDSOR ,"(43.469082, -72.392586)"
KINNEY DRUGS 35,3 Centre Dr,,Milton,VT,5468,3779,CHITTENDEN ,"(44.622135, -73.122467)"
KINNEY DRUGS  55,1653 Williston Rd,,S Burlington,VT,5403,6426,CHITTENDEN ,"(44.46413, -73.158951)"
DERBY VILLAGE STORE,MAIN ST,,DERBY,VT,5829,,ORLEANS ,"(44.944847, -72.134529)"
LIBERTY DISCOUNT,7 Liberty St,,Fair Haven,VT,5743,1122,RUTLAND ,"(43.592194, -73.264801)"
E Corinth General Store Inc,8392 VT Route 25,,East Corinth,VT,5040,9749,ORANGE ,"(44.054718, -72.221024)"
PRICE CHOPPER  171,214 Northside Dr,,Bennington,VT,5201,1754,BENNINGTON ,"(42.900593, -73.211693)"
RITE AID 10317,158 Cherry St,,Burlington,VT,5401,,CHITTENDEN ,"(44.479362, -73.212318)"
SIMONS WINOOSKI STORE & DELI,262 Main St,,Winooski,VT,5404,1330,CHITTENDEN ,"(44.496925, -73.185112)"
HANNAFORD 8274,259 Route 7 S,,Milton,VT,5468,3868,CHITTENDEN ,"(44.622585, -73.121826)"
HANNAFORD  308,71 Jayview Dr,,Enosburg Falls,VT,5450,,FRANKLIN ,"(44.912842, -72.797081)"
FASTOP,155 Main St,,Winooski,VT,5404,2028,CHITTENDEN ,"(44.49403, -73.186424)"
SHAW'S SUPERMARKET 07519,8 Washington St,,Middlebury,VT,5753,1207,ADDISON ,"(44.015114, -73.164085)"
SHAW'S SUPERMARKET 07524,195 Old Route 22a,,Fair Haven,VT,5743,9209,RUTLAND ,"(43.638573, -73.296722)"
Shaws Supermarket 07517,570 Shelburne Rd,Ste 1,Burlington,VT,5401,5053,CHITTENDEN ,"(44.449486, -73.209061)"
SHAW'S SUPERMARKET 7530,64 Equinox Ter,,Manchester Center,VT,5255,9252,BENNINGTON ,"(43.172306, -73.06089)"
SHAW'S SUPERMARKET 07525,751 Maple St,,Stowe,VT,5672,4295,LAMOILLE ,"(44.471195, -72.673637)"
SHAW'S SUPERMARKET 07526,27 Mad River Canoe Rd,,Waitsfield,VT,5673,,WASHINGTON ,"(44.185665, -72.837669)"
SHAW'S SUPERMARKET 7529,127 Vt Hwy 12S,,Randolph,VT,5060,,ORANGE ,"(43.959553, -72.687241)"
SHAW'S SUPERMARKET 7531,2 Chester Rd,Ste 1,Springfield,VT,5156,2936,WINDSOR ,"(43.303715, -72.492638)"
SHAW'S SUPERMARKET 07523,55 Depot St,,Poultney,VT,5764,1007,RUTLAND ,"(43.517864, -73.236488)"
SHAW'S SUPERMARKET 07527,213 Main St,Ste 1,Ludlow,VT,5149,1009,WINDSOR ,"(43.395939, -72.703148)"
Shaw's Supermarket 7528,7 Prince Ln,,Bristol,VT,5443,1224,ADDISON ,"(44.133446, -73.07708)"
SHAW'S SUPERMARKET 07521,2 Main St,,Montpelier,VT,5602,,WASHINGTON ,"(44.257816, -72.577644)"
SHAW'S SUPERMARKET 07522,97 E Main St,,Wilmington,VT,5363,9645,WINDHAM ,"(42.865688, -72.86393)"
KMART  3981,2 Diamond Run Mall,,Rutland,VT,5701,,RUTLAND ,"(43.579605, -72.965309)"
ROTARY MART 20,103 Shelburne Rd,,Burlington,VT,5401,4913,CHITTENDEN ,"(44.462723, -73.207954)"
CHAMPLAIN FARMS 280,16 N Main St,,Randolph,VT,5060,1127,ORANGE ,"(43.923595, -72.665222)"
CHAMPLAIN FARMS 270,73 N Main St,,Northfield,VT,5663,6742,WASHINGTON ,"(44.14986, -72.655869)"
CHAMPLAIN FARMS 120,137 S Main St,,Bethel,VT,5032,9631,WINDSOR ,"(43.826984, -72.62944)"
CHAMPLAIN FARMS 320,490 Railroad St,,St Johnsbury,VT,5819,1642,CALEDONIA ,"(44.419601, -72.015396)"
MACS VALLEY MARKET,233 SOUTH MAIN STR,,ROCHESTER,VT,5767,,WINDSOR ,"(43.871529, -72.807991)"
HENRYS MARKET,831 Main St,,Bennington,VT,5201,2640,BENNINGTON ,"(42.879234, -73.182716)"
NORTH AVENUE MOBIL SHORT STOP,1555 North Ave,,Burlington,VT,5408,2429,CHITTENDEN ,"(44.515514, -73.256477)"
PRICE CHOPPER #192,90 Center Rd,,Essex Junction,VT,5452,2658,CHITTENDEN ,"(44.510956, -73.065704)"
FOOD CITY,101 Lake St,,Saint Albans,VT,5478,2218,FRANKLIN ,"(44.810986, -73.087311)"
ALDI INC 29,10 Kocher Dr,,Bennington,VT,5201,1923,BENNINGTON ,"(42.89415, -73.199806)"
HANNAFORD FOOD & DRUG 162,80 Fairgrounds Plz,,Morrisville,VT,5661,8520,LAMOILLE ,"(44.572678, -72.596207)"
SHAW'S SUPERMARKET 07518,71 Boxwood St,,Williston,VT,5495,8211,CHITTENDEN ,"(44.447323, -73.108704)"
CHICKS MARKET,60 Hickok St,,Winooski,VT,5404,1909,CHITTENDEN ,"(44.493267, -73.192741)"
MACS WOODSTOCK MARKET,37 Pleasant St,,Woodstock,VT,5091,1146,WINDSOR ,"(43.626751, -72.511856)"
RITE AID 10310,52 Main St,,Windsor,VT,5089,1308,WINDSOR ,"(43.480778, -72.386047)"
HANNAFORD FOOD & DRUG 161,1127 North Ave Ste 11,,Burlington,VT,5408,2756,CHITTENDEN ,"(44.506817, -73.244812)"
NORTH TUNBRIDGE GENERAL STORE,494 VT ROUTE 110,,NORTH TUNBRIDGE,VT,5077,,ORANGE ,"(43.914299, -72.478363)"
UNION ST GROCERY & REDEMPTION CTR,30 Union St,,Brandon,VT,5733,1143,RUTLAND ,"(43.795616, -73.08831)"
HANNAFORD SUPERMARKET 129,456 S Barre Rd,,Barre,VT,5641,8107,WASHINGTON ,"(44.174213, -72.507019)"
SOUTH ROYALTON MARKET,222 CHELSEA ST,,SOUTH ROYALTON,VT,5068,,WINDSOR ,"(43.820908, -72.521103)"
WALMART  2530,1 Rutland Shopping Plz,,Rutland,VT,5701,5201,RUTLAND ,"(43.606487, -72.980659)"
WALMART 2289,210 Northside Dr,Ste 1,Bennington,VT,5201,1766,BENNINGTON ,"(42.900455, -73.211479)"
SAXTONS RIVER VILLAGE MKT,25 Main St,,Saxtons River,VT,5154,,WINDHAM ,"(43.138748, -72.50705)"
Schwans Home Service RUTLAND DEPOT  #102720 102720,310 Innovation Dr,,North Clarendon,VT,5759,9436,RUTLAND ,"(43.524498, -72.955376)"
DISCOUNT FOOD OF POULTNEY,298 E Main St,,Poultney,VT,5764,1169,RUTLAND ,"(43.518002, -73.226952)"
FRANKLIN GENERAL STORE,5243 Main St,,Franklin,VT,5457,9504,FRANKLIN ,"(44.982601, -72.916145)"
Waterville Market,513 VT Route 109,,Waterville,VT,5492,9679,LAMOILLE ,"(44.689636, -72.769279)"
CENTRAL BEVERAGE,4 CENTRAL ST,,ESSEX JUNCTION,VT,5452,,CHITTENDEN ,"(44.492962, -73.110085)"
CHAMPLAIN FARMS 90,15 S Main St,,Barre,VT,5641,4824,WASHINGTON ,"(44.195877, -72.501297)"
ISLAND BEVERAGE & REDEMPTION,1 Ferry Rd,,South Hero,VT,5486,4401,GRAND ISLE ,"(44.664444, -73.322922)"
RITE AID 10311,112 Rockingham St,,Bellows Falls,VT,5101,1331,WINDHAM ,"(43.13644, -72.44812)"
WINCHESTERS STORE,ROUTE 7,,POWNAL,VT,5261,,BENNINGTON ,"(42.74482, -73.213142)"
DOWNTOWN QUICK STOP,93 S Winooski Ave,,Burlington,VT,5401,3832,CHITTENDEN ,"(44.478088, -73.211182)"
SOUTH MAIN QUICK STOP,301 S Main St,,Richford,VT,5476,1136,FRANKLIN ,"(44.987888, -72.678062)"
SHAW'S SUPERMARKET 7536,115C Monkton Rd,,Vergennes,VT,5491,9778,ADDISON ,"(44.171837, -73.240158)"
WARDSBORO COUNTRY STORE,23 MAIN ST,,WARDSBORO,VT,5355,,WINDHAM ,"(43.041004, -72.789848)"
RAIL CITY MARKET,8 S Main St,,Saint Albans,VT,5478,2273,FRANKLIN ,"(44.810619, -73.083519)"
BURLINGTON FARMERS MKT,149 Church St,City Hall,Burlington,VT,5401,,CHITTENDEN ,"(44.476357, -73.212547)"
G & L GENERAL STORE,2813 Route 22A,,Benson,VT,5743,9689,RUTLAND ,"(43.718269, -73.298744)"
WALMART  2224,863 Harvest Ln,,Williston,VT,5495,7319,CHITTENDEN ,"(44.443352, -73.121162)"
WALMART 2682,282 Berlin Mall Rd,Ste 1,Berlin,VT,5602,8493,WASHINGTON ,"(44.215103, -72.565765)"
WALGREENS  7270,467 Canal St,,Brattleboro,VT,5301,,WINDHAM ,"(42.839333, -72.565132)"
SHARON TRADING POST,5038 ROUTE 14,,SHARON,VT,5065,70,WINDSOR ,"(43.784016, -72.454628)"
CAMBRIDGE VILLAGE MARKET,113 S Main St,,Cambridge,VT,5444,9665,CHITTENDEN ,"(44.644684, -72.876816)"
Newport Farmers Market,CAUSEWAY ST,,Newport,VT,5855,,ORLEANS ,"(44.924091, -72.191223)"
RITE AID  4159,4408 US ROUTE 5,,DERBY,VT,5829,618,ORLEANS ,"(44.951679, -72.158287)"
Rite Aid 10309,12 N Main St,,Randolph,VT,5060,1127,ORANGE ,"(43.923397, -72.665146)"
QUALITY MARKET,155 Washington St,,Barre,VT,5641,4330,WASHINGTON ,"(44.192406, -72.493111)"
APPLE TREE,30 Mountain View Plz,,Morrisville,VT,5661,8534,LAMOILLE ,"(44.572308, -72.591347)"
HANNAFORD FOOD AND DRUG 121,260 Court St,Ste 6,Middlebury,VT,5753,4427,ADDISON ,"(44.003021, -73.15493)"
SHAW'S SUPERMARKET 07610,4340 US Route 5,,Derby,VT,5829,,ORLEANS ,"(44.951706, -72.157196)"
CHAMPLAIN FARMS 40,219 Main St,,Burlington,VT,5401,8321,CHITTENDEN ,"(44.475906, -73.21122)"
FASTOP 110,377 N Main St,,Barre,VT,5641,4155,WASHINGTON ,"(44.202755, -72.507927)"
SONNY'S PIT STOP,228 Canal St,,Brattleboro,VT,5301,6464,WINDHAM ,"(42.845795, -72.563065)"
CUMBERLAND FARMS  8028,146 College Pkwy,,Colchester,VT,5446,3014,CHITTENDEN ,"(44.492985, -73.167885)"
CUMBERLAND FARMS  8025,524 N Main St,,Barre,VT,5641,2504,WASHINGTON ,"(44.207462, -72.513252)"
CUMBERLAND FARMS  8024,37 Berlin St,,Montpelier,VT,5602,3532,WASHINGTON ,"(44.255924, -72.575897)"
CUMBERLAND FARMS 8023,20 Lower Main St,,Morrisville,VT,5661,4478,LAMOILLE ,"(44.561638, -72.598976)"
CUMBERLAND FARMS  8019,454 Riverside Ave,,Burlington,VT,5401,1452,CHITTENDEN ,"(44.488411, -73.200455)"
BRISTOL COUNTRY STORE,3191 S 116 Rd,,Bristol,VT,5443,5130,ADDISON ,"(44.086323, -73.089607)"
CUMBERLAND FARMS  8027,132 S Main St,,Barre,VT,5641,4809,WASHINGTON ,"(44.189529, -72.498306)"
CUMBERLAND FARMS  8018,661 Pine St,,Burlington,VT,5401,4921,CHITTENDEN ,"(44.460968, -73.214577)"
Rite Aid 10313,2 Chester Rd,Ste 25,Springfield,VT,5156,2953,WINDSOR ,"(43.303715, -72.492638)"
CUMBERLAND FARMS  8016,56 E Main St,,Richmond,VT,5477,,CHITTENDEN ,"(44.404568, -72.991829)"
B & B CASH MARKET,9 BEANVILLE ROAD,,WEST FAIRLEE,VT,5083,,ORANGE ,"(43.909237, -72.262993)"
BAKER'S STORE,7788 VT Route 113,,Post Mills,VT,5058,9900,ORANGE ,"(43.88353, -72.261681)"
SPRINGFIELD FOOD CO-OP INC,335 River St,Ste 1,Springfield,VT,5156,2244,WINDSOR ,"(43.318008, -72.504211)"
Hubbards Store,38 VT Route 125,,Hancock,VT,5748,9729,ADDISON ,"(43.926254, -72.842117)"
LISAIS CHESTER MARKET INC,ROUTE 103,,CHESTER,VT,5143,707,WINDSOR ,"(43.373833, -72.63443)"
CUMBERLAND FARMS 8007,1167 Hartford Ave,,White Riv Jct,VT,5001,8065,WINDSOR ,"(43.665173, -72.312714)"
4 CORNERS MINI MART,298 VT Route 101,,North Troy,VT,5859,9218,ORLEANS ,"(44.960697, -72.413269)"
HILLIKERS STORE,2519 VT Route 105,,Newport Ctr,VT,5857,9518,ORLEANS ,"(44.931259, -72.288628)"
STEWARTS SHOP #199,7594 Route 7,,Pownal,VT,5261,9491,BENNINGTON ,"(42.750607, -73.214897)"
SIMONS STORE,42 Park St,,Burlington,VT,5401,4326,CHITTENDEN ,"(44.481674, -73.219101)"
WHITE RIVER DISCOUNT FOODS,80 Sykes Mountain Ave,,White Riv Jct,VT,5001,2099,WINDSOR ,"(43.646358, -72.334106)"
MINORS COUNTRY STORE,874 Main St,,Fairfax,VT,5454,9519,CHITTENDEN ,"(44.653469, -73.000244)"
LUCIER STORE,4167 MAIN ST,RTE 105,NEWPORT CTR,VT,5857,,ORLEANS ,"(44.976311, -72.256973)"
Bimbo Bakeries 8683,69 Park St,,Rutland,VT,5701,4708,RUTLAND ,"(43.595596, -72.975998)"
Bimbo Bakeries 8817,374 US Route 302,,Barre,VT,5641,2240,WASHINGTON ,"(44.217705, -72.538452)"
B & B ENTERPRISES BARTON,MAIN ST,,BARTON,VT,5822,237,ORLEANS ,"(44.745827, -72.174278)"
MARTYS 1ST STOP,US ROUTE 2,,DANVILLE,VT,5828,30,CALEDONIA ,"(44.408241, -72.190582)"
PRICE CHOPPER #165 120,555 Shelburne Rd,,Burlington,VT,5401,5050,CHITTENDEN ,"(44.449455, -73.209137)"
PRICE CHOPPER  131,38 Rutland Shopping Plz,,Rutland,VT,5701,5201,RUTLAND ,"(43.604321, -72.979561)"
PRICE CHOPPER  122,5 MAIN ST,,WEST RUTLAND,VT,5777,,RUTLAND ,"(43.608471, -72.972275)"
PRICE CHOPPER  123,168 Ames Dr,,Barre,VT,5641,2373,WASHINGTON ,"(44.222965, -72.54734)"
PRICE CHOPPER 125,263 Depot St,Ste 11,Manchester Center,VT,5255,9622,BENNINGTON ,"(43.174824, -73.052841)"
PRICE CHOPPER 177,2725 US Route 5 N,,Windsor,VT,5089,9492,WINDSOR ,"(43.486275, -72.385422)"
PRICE CHOPPER 136,499 Canal St,,Brattleboro,VT,5301,7112,WINDHAM ,"(42.838814, -72.565277)"
PRICE CHOPPER 137,15 Munson Ave,,Morrisville,VT,5661,,LAMOILLE ,"(44.569138, -72.594391)"
WILLARD STREET MARKET,141 N Willard St,,Burlington,VT,5401,3316,CHITTENDEN ,"(44.484779, -73.205948)"
NICHOLS GENERAL STORE,MAIN STREET,,DANBY,VT,5739,,RUTLAND ,"(43.346691, -72.99633)"
JIFFY MART 12,100 State St,,Rutland,VT,5701,2836,RUTLAND ,"(43.609123, -72.98275)"
Schwans Home Service COLCHESTER DEPOT #111070 111070,30 Jimmo Dr,,Colchester,VT,5446,7993,CHITTENDEN ,"(44.593437, -73.16909)"
BOB'S QUICK STOP,6196 Route 14,,Irasburg,VT,5845,9305,ORLEANS ,"(44.787792, -72.299614)"
ANDRE PERRON,69 Raymond Ter,,Glover,VT,5839,9654,ORLEANS ,"(44.701859, -72.191063)"
INTERVALE COMMUNITY FARM,281 Intervale Road,,Burlington,VT,5401,,CHITTENDEN ,"(44.497715, -73.207428)"
STEWARTS SHOP  198,110 Main St,,West Rutland,VT,5777,9612,RUTLAND ,"(43.600994, -72.970833)"
UPPER VALLEY CO OP,193 N Main St,,White Riv Jct,VT,5001,7044,WINDSOR ,"(43.650055, -72.32206)"
Stewarts Shop 191,217 Main St,,Poultney,VT,5764,1191,RUTLAND ,"(43.517063, -73.237206)"
STEWARTS SHOP  190,8 Dutton Ave,,Fair Haven,VT,5743,1108,RUTLAND ,"(43.600792, -73.261665)"
STEWARTS SHOP  192,140 Strongs Ave,,Rutland,VT,5701,4444,RUTLAND ,"(43.59956, -72.971741)"
WAYSIDE COUNTRY STORE,3307 VT Route 313 W,,West Arlington,VT,5250,8928,BENNINGTON ,"(43.098919, -73.205414)"
STEWARTS SHOP  195,713 Main St,,Bennington,VT,5201,2148,BENNINGTON ,"(42.878571, -73.187553)"
STEWARTS SHOP  194,81 State St,,Rutland,VT,5701,2837,RUTLAND ,"(43.609337, -72.981178)"
SHELDON MINI MART INC,2824 VT Route 105,,SHELDON SPRINGS,VT,5483,,FRANKLIN ,"(44.903324, -72.975883)"
LEGARE FARM STAND,ROUTE 14,,CALAIS,VT,5666,,WASHINGTON ,"(44.30714, -72.447166)"
READSBORO GENERAL STORE,6828 Main St,,Readsboro,VT,5350,9806,BENNINGTON ,"(42.773693, -72.951256)"
J & M Groceries,68 Archibald St,,Burlington,VT,5401,4223,CHITTENDEN ,"(44.487846, -73.211433)"
DOTS MARKET,22 Archibald St,,Burlington,VT,5401,4222,CHITTENDEN ,"(44.487766, -73.213264)"
WINGS SUPERMRKT-E THETFORD,MAIN STREET RT 5,,EAST THETFORD,VT,5043,,ORANGE ,"(43.785812, -72.255508)"
B & B ENTERPRISES,165 NELSON HILL RD,,DERBY,VT,5829,237,ORLEANS ,"(44.959839, -72.124496)"
RIVERBEND MARKETPLACE,625 VT Route 30,,Townshend,VT,5353,9717,WINDHAM ,"(43.028004, -72.657822)"
FOREST DALE GROCERY & DELI,FURNACE RD,,FOREST DALE,VT,5745,,RUTLAND ,"(43.827698, -73.0541)"
Bimbo Bakeries 8820,338 Boyer Cir,,Williston,VT,5495,8961,CHITTENDEN ,"(44.444313, -73.133171)"
Stewarts Shop 193,3784 VT Route 7A,,Arlington,VT,5250,4408,BENNINGTON ,"(43.073135, -73.154518)"
